{"type": "FeatureCollection", "features": [{"type": "Feature", "properties": {"LOT": "1", "ACRES": 1.22, "SOURCE": "Plat Book 10, Page 195"}, "geometry": {"type": "Polygon", "coordinates": [[[-81.9836257, 29.0471798], [-81.9842569, 29.0471734], [-81.9843725, 29.0468196], [-81.9844012, 29.0466507], [-81.9838538, 29.0465078], [-81.9836185, 29.0464665], [-81.9835986, 29.0464843], [-81.9836257, 29.0471798]]]}}, {"type": "Feature", "properties": {"LOT": "2", "ACRES": 1.57, "SOURCE": "Plat Book 10, Page 195"}, "geometry": {"type": "Polygon", "coordinates": [[[-81.9838629, 29.0482156], [-81.984443, 29.0482129], [-81.9844022, 29.0480158], [-81.9842235, 29.0474624], [-81.9841661, 29.047444], [-81.9836296, 29.0474499], [-81.9835592, 29.0477092], [-81.9835461, 29.0481928], [-81.9838629, 29.0482156]]]}}, {"type": "Feature", "properties": {"LOT": "3", "ACRES": 1.45, "SOURCE": "Plat Book 10, Page 195"}, "geometry": {"type": "Polygon", "coordinates": [[[-81.9846848, 29.0490133], [-81.9845855, 29.0486112], [-81.9845174, 29.0484741], [-81.9835738, 29.0484755], [-81.9835468, 29.048495], [-81.9835528, 29.0489647], [-81.9846848, 29.0490133]]]}}, {"type": "Feature", "properties": {"LOT": "4", "ACRES": 1.48, "SOURCE": "Plat Book 10, Page 195"}, "geometry": {"type": "Polygon", "coordinates": [[[-81.9829075, 29.0489409], [-81.9829339, 29.0488181], [-81.9829397, 29.0485422], [-81.9829218, 29.0482026], [-81.9821552, 29.0482012], [-81.9821343, 29.0482198], [-81.9821321, 29.0488081], [-81.9821742, 29.0488332], [-81.9826001, 29.0489272], [-81.9829075, 29.0489409]]]}}, {"type": "Feature", "properties": {"LOT": "5", "ACRES": 1.03, "SOURCE": "Plat Book 10, Page 195"}, "geometry": {"type": "Polygon", "coordinates": [[[-81.9810522, 29.048702], [-81.9818301, 29.0486941], [-81.9818272, 29.0482045], [-81.9810432, 29.0481997], [-81.9810522, 29.048702]]]}}, {"type": "Feature", "properties": {"LOT": "6", "ACRES": 1.14, "SOURCE": "Plat Book 10, Page 195"}, "geometry": {"type": "Polygon", "coordinates": [[[-81.9804811, 29.0481251], [-81.9804887, 29.0480363], [-81.9802001, 29.048029], [-81.980149, 29.0480517], [-81.9800484, 29.0480281], [-81.9797675, 29.0480277], [-81.9797317, 29.0480447], [-81.9797346, 29.0482039], [-81.9799749, 29.0483813], [-81.9802262, 29.0486137], [-81.9807363, 29.048608], [-81.9807189, 29.0483923], [-81.98074, 29.0482225], [-81.9805278, 29.0481898], [-81.9804811, 29.0481251]]]}}, {"type": "Feature", "properties": {"LOT": "7", "ACRES": 1.34, "SOURCE": "Plat Book 10, Page 195"}, "geometry": {"type": "Polygon", "coordinates": [[[-81.9794012, 29.0494474], [-81.9797546, 29.0494443], [-81.9800698, 29.0492089], [-81.980083, 29.0488564], [-81.9797206, 29.048561], [-81.9794036, 29.048565], [-81.9794012, 29.0494474]]]}}, {"type": "Feature", "properties": {"LOT": "8", "ACRES": 1.51, "SOURCE": "Plat Book 10, Page 195"}, "geometry": {"type": "Polygon", "coordinates": [[[-81.9807157, 29.0502324], [-81.9807387, 29.050212], [-81.9807419, 29.0495052], [-81.9803724, 29.049435], [-81.9802277, 29.0494374], [-81.9799806, 29.0496284], [-81.9799731, 29.0502257], [-81.9807157, 29.0502324]]]}}, {"type": "Feature", "properties": {"LOT": "9", "ACRES": 0.93, "SOURCE": "Plat Book 10, Page 195"}, "geometry": {"type": "Polygon", "coordinates": [[[-81.9814033, 29.0494648], [-81.9813101, 29.0494275], [-81.9810428, 29.0494167], [-81.981066, 29.0496251], [-81.9810411, 29.0498332], [-81.9811942, 29.0497988], [-81.9812958, 29.0498127], [-81.9814705, 29.0498748], [-81.9816228, 29.0500373], [-81.9818308, 29.0500292], [-81.9818186, 29.0494701], [-81.9814033, 29.0494648]]]}}, {"type": "Feature", "properties": {"LOT": "10", "ACRES": 1.5, "SOURCE": "Plat Book 10, Page 195"}, "geometry": {"type": "Polygon", "coordinates": [[[-81.9821339, 29.0503528], [-81.9829062, 29.0503623], [-81.9829271, 29.0502985], [-81.9829308, 29.0499558], [-81.9829252, 29.0496691], [-81.9829044, 29.0496509], [-81.9821449, 29.0496277], [-81.9821339, 29.0503528]]]}}, {"type": "Feature", "properties": {"LOT": "11", "ACRES": 1.25, "SOURCE": "Plat Book 10, Page 195"}, "geometry": {"type": "Polygon", "coordinates": [[[-81.9840055, 29.0502474], [-81.9840878, 29.0502306], [-81.9840849, 29.0497106], [-81.9832393, 29.0496669], [-81.9832282, 29.0502302], [-81.9840055, 29.0502474]]]}}, {"type": "Feature", "properties": {"LOT": "12", "ACRES": 1.06, "SOURCE": "Plat Book 10, Page 195"}, "geometry": {"type": "Polygon", "coordinates": [[[-81.9843931, 29.05024], [-81.9849654, 29.0502458], [-81.9850334, 29.0495801], [-81.9844053, 29.0495793], [-81.9843931, 29.05024]]]}}, {"type": "Feature", "properties": {"LOT": "13", "ACRES": 1.1, "SOURCE": "Plat Book 10, Page 195"}, "geometry": {"type": "Polygon", "coordinates": [[[-81.9836535, 29.0514162], [-81.9833719, 29.0512574], [-81.9832156, 29.0511183], [-81.9831689, 29.0510331], [-81.9828803, 29.0510269], [-81.9828592, 29.0510455], [-81.9828599, 29.0512364], [-81.9828825, 29.0512726], [-81.9828567, 29.0513875], [-81.9828634, 29.0515969], [-81.9831952, 29.0518135], [-81.9832811, 29.0518079], [-81.9835424, 29.0516193], [-81.9836473, 29.0514813], [-81.9836535, 29.0514162]]]}}, {"type": "Feature", "properties": {"LOT": "14", "ACRES": 1.38, "SOURCE": "Plat Book 10, Page 195"}, "geometry": {"type": "Polygon", "coordinates": [[[-81.9825289, 29.0517579], [-81.9825523, 29.0517246], [-81.9825534, 29.0510318], [-81.9817561, 29.0510186], [-81.9817586, 29.0511332], [-81.9819473, 29.0517526], [-81.9825289, 29.0517579]]]}}, {"type": "Feature", "properties": {"LOT": "15", "ACRES": 1.62, "SOURCE": "Plat Book 10, Page 195"}, "geometry": {"type": "Polygon", "coordinates": [[[-81.9810474, 29.0520444], [-81.9811125, 29.0520442], [-81.9816416, 29.051841], [-81.9816352, 29.0517416], [-81.9814575, 29.0511675], [-81.9806819, 29.0512796], [-81.980768, 29.0517917], [-81.9810474, 29.0520444]]]}}, {"type": "Feature", "properties": {"LOT": "16", "ACRES": 1.57, "SOURCE": "Plat Book 10, Page 195"}, "geometry": {"type": "Polygon", "coordinates": [[[-81.9806737, 29.0525912], [-81.9808269, 29.052305], [-81.9808349, 29.0522359], [-81.9801621, 29.0516295], [-81.9801063, 29.0516297], [-81.9797673, 29.0519123], [-81.9797857, 29.0520095], [-81.9799342, 29.0523372], [-81.9805601, 29.0525737], [-81.9806737, 29.0525912]]]}}, {"type": "Feature", "properties": {"LOT": "17", "ACRES": 1.39, "SOURCE": "Plat Book 10, Page 195"}, "geometry": {"type": "Polygon", "coordinates": [[[-81.9804841, 29.0533039], [-81.9804762, 29.0528222], [-81.9801447, 29.0527058], [-81.9800847, 29.052706], [-81.9793682, 29.0530408], [-81.979369, 29.0533006], [-81.9804841, 29.0533039]]]}}, {"type": "Feature", "properties": {"LOT": "18", "ACRES": 1.64, "SOURCE": "Plat Book 10, Page 195"}, "geometry": {"type": "Polygon", "coordinates": [[[-81.9793725, 29.0541186], [-81.9804782, 29.0541168], [-81.9804827, 29.0535691], [-81.9794086, 29.0535591], [-81.9793593, 29.053579], [-81.9793725, 29.0541186]]]}}, {"type": "Feature", "properties": {"LOT": "19", "ACRES": 1.14, "SOURCE": "Plat Book 15, Page 16"}, "geometry": {"type": "Polygon", "coordinates": [[[-81.9793566, 29.0549494], [-81.9793545, 29.0544089], [-81.9801619, 29.0544066], [-81.9801631, 29.0547295], [-81.9801893, 29.0547445], [-81.9800394, 29.0549474], [-81.9793566, 29.0549494]]]}}, {"type": "Feature", "properties": {"LOT": "20", "ACRES": 1.8, "SOURCE": "Plat Book 10, Page 195"}, "geometry": {"type": "Polygon", "coordinates": [[[-81.9797087, 29.0561358], [-81.9800082, 29.0561327], [-81.9803503, 29.0558302], [-81.980354, 29.0555772], [-81.9799766, 29.0552319], [-81.9796901, 29.0552298], [-81.979365, 29.055506], [-81.9793615, 29.0558273], [-81.9797087, 29.0561358]]]}}, {"type": "Feature", "properties": {"LOT": "21", "ACRES": 1.72, "SOURCE": "Plat Book 10, Page 195"}, "geometry": {"type": "Polygon", "coordinates": [[[-81.9816111, 29.0561199], [-81.9818973, 29.0556163], [-81.9819173, 29.0555224], [-81.9811907, 29.0552019], [-81.9810825, 29.0551848], [-81.9806995, 29.0555399], [-81.9806892, 29.0556118], [-81.9815149, 29.0561056], [-81.9816111, 29.0561199]]]}}, {"type": "Feature", "properties": {"LOT": "22", "ACRES": 1.01, "SOURCE": "Plat Book 10, Page 195"}, "geometry": {"type": "Polygon", "coordinates": [[[-81.9863213, 29.0540922], [-81.9869141, 29.0540825], [-81.9869101, 29.0535366], [-81.9861361, 29.0535382], [-81.9861447, 29.05362], [-81.9863213, 29.0540922]]]}}, {"type": "Feature", "properties": {"LOT": "23", "ACRES": 1.02, "SOURCE": "Plat Book 10, Page 195"}, "geometry": {"type": "Polygon", "coordinates": [[[-81.9867667, 29.0530575], [-81.9865138, 29.0530897], [-81.9860145, 29.0530352], [-81.9859126, 29.053045], [-81.9858653, 29.0530099], [-81.9855162, 29.0529363], [-81.9855207, 29.0530523], [-81.9856777, 29.0531899], [-81.9857331, 29.0532017], [-81.9857709, 29.0532682], [-81.9859378, 29.0534114], [-81.9867692, 29.0534034], [-81.9867669, 29.0532696], [-81.9867433, 29.0532384], [-81.9867667, 29.0530575]]]}}, {"type": "Feature", "properties": {"LOT": "24", "ACRES": 1.54, "SOURCE": "Plat Book 10, Page 195"}, "geometry": {"type": "Polygon", "coordinates": [[[-81.9867408, 29.0512962], [-81.9861032, 29.0512939], [-81.9859917, 29.051322], [-81.9858964, 29.0512926], [-81.9852773, 29.0512935], [-81.9852113, 29.0513042], [-81.98515, 29.0513601], [-81.9851501, 29.0514119], [-81.9852711, 29.0514658], [-81.9853207, 29.0515177], [-81.9855367, 29.0515157], [-81.9858563, 29.0516248], [-81.986062, 29.0517442], [-81.986199, 29.0517357], [-81.9863124, 29.0517979], [-81.9866162, 29.0517893], [-81.9866674, 29.0518126], [-81.9867678, 29.0518049], [-81.9867454, 29.0515355], [-81.9867709, 29.0514904], [-81.9867706, 29.0513284], [-81.9867408, 29.0512962]]]}}, {"type": "Feature", "properties": {"LOT": "25", "ACRES": 1.36, "SOURCE": "Plat Book 10, Page 195"}, "geometry": {"type": "Polygon", "coordinates": [[[-81.9853511, 29.0511079], [-81.9864778, 29.0510921], [-81.9864755, 29.0506032], [-81.985607, 29.0506012], [-81.9853408, 29.0510009], [-81.9853248, 29.0510846], [-81.9853511, 29.0511079]]]}}, {"type": "Feature", "properties": {"LOT": "26", "ACRES": 0.87, "SOURCE": "Plat Book 10, Page 195"}, "geometry": {"type": "Polygon", "coordinates": [[[-81.9858013, 29.0503303], [-81.9864843, 29.0503257], [-81.9864733, 29.0498447], [-81.9857903, 29.0498491], [-81.9858013, 29.0503303]]]}}, {"type": "Feature", "properties": {"LOT": "27", "ACRES": 1.1, "SOURCE": "Plat Book 10, Page 195"}, "geometry": {"type": "Polygon", "coordinates": [[[-81.9857138, 29.0495753], [-81.986466, 29.0495742], [-81.9864866, 29.0495537], [-81.9864857, 29.0490964], [-81.9855783, 29.0490842], [-81.9855867, 29.0492124], [-81.9857138, 29.0495753]]]}}, {"type": "Feature", "properties": {"LOT": "28", "ACRES": 1.41, "SOURCE": "Plat Book 10, Page 195"}, "geometry": {"type": "Polygon", "coordinates": [[[-81.9854815, 29.0488202], [-81.9864417, 29.0488224], [-81.9864846, 29.0488003], [-81.9864804, 29.0483343], [-81.9853362, 29.0483311], [-81.985355, 29.0484614], [-81.9854815, 29.0488202]]]}}, {"type": "Feature", "properties": {"LOT": "29", "ACRES": 1.1, "SOURCE": "Plat Book 10, Page 195"}, "geometry": {"type": "Polygon", "coordinates": [[[-81.9852353, 29.0480593], [-81.9860104, 29.0480641], [-81.9860312, 29.0480456], [-81.9860272, 29.047577], [-81.9851028, 29.0475797], [-81.9852353, 29.0480593]]]}}, {"type": "Feature", "properties": {"LOT": "30", "ACRES": 1.15, "SOURCE": "Plat Book 10, Page 195"}, "geometry": {"type": "Polygon", "coordinates": [[[-81.98516, 29.0473077], [-81.9860308, 29.0473052], [-81.9860184, 29.0468402], [-81.9854924, 29.0466762], [-81.9854078, 29.0466673], [-81.9851702, 29.0472191], [-81.98516, 29.0473077]]]}}, {"type": "Feature", "properties": {"LOT": "31", "ACRES": 1.55, "SOURCE": "Plat Book 11, Page 1"}, "geometry": {"type": "Polygon", "coordinates": [[[-81.9820278, 29.0552697], [-81.9820851, 29.0552694], [-81.9823204, 29.0548549], [-81.9823201, 29.0548061], [-81.9814201, 29.0544086], [-81.981347, 29.0544053], [-81.9811085, 29.0548079], [-81.9811067, 29.0548688], [-81.9820278, 29.0552697]]]}}, {"type": "Feature", "properties": {"LOT": "32", "ACRES": 1.78, "SOURCE": "Plat Book 11, Page 1"}, "geometry": {"type": "Polygon", "coordinates": [[[-81.9824891, 29.0545648], [-81.9826774, 29.0542429], [-81.9826712, 29.0541608], [-81.981401, 29.0536043], [-81.981294, 29.0535878], [-81.9812896, 29.0540563], [-81.9813257, 29.0540896], [-81.9823846, 29.0545527], [-81.9824891, 29.0545648]]]}}, {"type": "Feature", "properties": {"LOT": "33", "ACRES": 1.99, "SOURCE": "Plat Book 11, Page 1"}, "geometry": {"type": "Polygon", "coordinates": [[[-81.982849, 29.0539332], [-81.9830262, 29.0536137], [-81.9830088, 29.0535402], [-81.9815922, 29.0529294], [-81.9814938, 29.0529191], [-81.9813065, 29.0532262], [-81.9813097, 29.0532849], [-81.9827594, 29.0539244], [-81.982849, 29.0539332]]]}}, {"type": "Feature", "properties": {"LOT": "34", "ACRES": 1.41, "SOURCE": "Plat Book 11, Page 1"}, "geometry": {"type": "Polygon", "coordinates": [[[-81.982916, 29.053192], [-81.9830554, 29.05294], [-81.9830551, 29.0528903], [-81.9826452, 29.052467], [-81.9822288, 29.0524646], [-81.9817833, 29.0526271], [-81.9817836, 29.0526781], [-81.9818437, 29.0527496], [-81.9828492, 29.0531904], [-81.982916, 29.053192]]]}}, {"type": "Feature", "properties": {"LOT": "35", "ACRES": 1.39, "SOURCE": "Plat Book 11, Page 1"}, "geometry": {"type": "Polygon", "coordinates": [[[-81.9837547, 29.0531587], [-81.9841991, 29.0527651], [-81.9841998, 29.0527103], [-81.9837503, 29.0523256], [-81.9834112, 29.0523073], [-81.9831373, 29.0525165], [-81.9831376, 29.0525651], [-81.9836913, 29.0531532], [-81.9837547, 29.0531587]]]}}, {"type": "Feature", "properties": {"LOT": "36", "ACRES": 0.72, "SOURCE": "Plat Book 11, Page 1"}, "geometry": {"type": "Polygon", "coordinates": [[[-81.9856303, 29.0540613], [-81.9855261, 29.0539439], [-81.9855361, 29.0538676], [-81.9855147, 29.0538426], [-81.9850249, 29.0534183], [-81.9849631, 29.0534185], [-81.985029, 29.0538718], [-81.9850163, 29.0541249], [-81.9856237, 29.0541255], [-81.9856303, 29.0540613]]]}}, {"type": "Feature", "properties": {"LOT": "37", "ACRES": 1.61, "SOURCE": "Plat Book 11, Page 1"}, "geometry": {"type": "Polygon", "coordinates": [[[-81.9855028, 29.0552255], [-81.985538, 29.0548694], [-81.9853428, 29.0544101], [-81.9852988, 29.0543947], [-81.9848652, 29.0543993], [-81.984645, 29.0547669], [-81.9846765, 29.0548999], [-81.9848207, 29.0552175], [-81.9855028, 29.0552255]]]}}, {"type": "Feature", "properties": {"LOT": "38", "ACRES": 0.55, "SOURCE": "Plat Book 11, Page 1"}, "geometry": {"type": "Polygon", "coordinates": [[[-81.9859967, 29.0551826], [-81.9861605, 29.0550961], [-81.9862356, 29.0549697], [-81.9862407, 29.0548696], [-81.9863411, 29.0547441], [-81.9863501, 29.0546789], [-81.9864249, 29.0545828], [-81.9864247, 29.0545323], [-81.9861845, 29.054512], [-81.9859358, 29.0547122], [-81.9859387, 29.0550344], [-81.9859072, 29.0550755], [-81.9858979, 29.0552571], [-81.9859618, 29.0552569], [-81.9859967, 29.0551826]]]}}]}