{"type": "FeatureCollection", "features": [{"type": "Feature", "properties": {"KIND": "conservation", "NAME": "Conservation Easement A", "SOURCE": "Plat Book 10, Page 195", "ACRES": 1.99}, "geometry": {"type": "Polygon", "coordinates": [[[-81.9870435, 29.0479274], [-81.9870435, 29.0504694], [-81.9872306, 29.0504694], [-81.9872334, 29.047762], [-81.9867793, 29.0477605], [-81.9867665, 29.0477544], [-81.9867649, 29.0469391], [-81.9865769, 29.0468825], [-81.9865769, 29.0479274], [-81.9870435, 29.0479274]]]}}, {"type": "Feature", "properties": {"KIND": "conservation", "NAME": "Conservation Easement B", "SOURCE": "Plat Book 10, Page 195; Plat Book 11, Page 1", "ACRES": 10.05}, "geometry": {"type": "Polygon", "coordinates": [[[-81.9820392, 29.0564899], [-81.9821394, 29.0563957], [-81.9821814, 29.0563122], [-81.9822295, 29.056249], [-81.9824917, 29.0556032], [-81.9826085, 29.0553775], [-81.9827443, 29.0551611], [-81.9828606, 29.0550632], [-81.9829139, 29.0550017], [-81.9829714, 29.0549444], [-81.9830275, 29.0549085], [-81.9830884, 29.054878], [-81.9831529, 29.0548536], [-81.9832201, 29.0548356], [-81.9832891, 29.0548244], [-81.9833608, 29.0548199], [-81.9834278, 29.0548224], [-81.983456, 29.0548309], [-81.9835294, 29.0548299], [-81.983605, 29.054851], [-81.9836968, 29.0548688], [-81.9837389, 29.0548902], [-81.9838049, 29.0549383], [-81.9838785, 29.0549703], [-81.9839221, 29.0549966], [-81.9840893, 29.0551315], [-81.9841745, 29.0551763], [-81.9843945, 29.0552731], [-81.984434, 29.055298], [-81.9844706, 29.0553288], [-81.9845809, 29.0554557], [-81.9846476, 29.0555872], [-81.9846881, 29.0556503], [-81.9847028, 29.0556926], [-81.9847382, 29.055753], [-81.9848082, 29.0558008], [-81.9848217, 29.0558168], [-81.9848796, 29.0558612], [-81.9849699, 29.0559144], [-81.9849864, 29.0559286], [-81.9849987, 29.0559301], [-81.9850253, 29.0559229], [-81.9850905, 29.0559415], [-81.9851975, 29.0559539], [-81.9852523, 29.0559529], [-81.9852909, 29.0559448], [-81.9853532, 29.0559524], [-81.9854164, 29.0559321], [-81.9854678, 29.0559352], [-81.9855947, 29.0559142], [-81.9857707, 29.0559005], [-81.9858106, 29.0558907], [-81.9858822, 29.0558913], [-81.9859529, 29.055871], [-81.9860415, 29.05588], [-81.9861081, 29.0558589], [-81.9862012, 29.0558094], [-81.9862298, 29.0557755], [-81.9862522, 29.0557381], [-81.9862679, 29.0556986], [-81.9862752, 29.0556489], [-81.9862952, 29.055587], [-81.9863143, 29.0555614], [-81.9863722, 29.0555218], [-81.9864207, 29.055433], [-81.9864654, 29.0554001], [-81.9865285, 29.0553698], [-81.9866071, 29.0553191], [-81.9866296, 29.0552895], [-81.9866485, 29.0552747], [-81.9866694, 29.0552672], [-81.9867334, 29.0552603], [-81.9867701, 29.0552499], [-81.9867885, 29.0552505], [-81.9868044, 29.0552398], [-81.9868058, 29.0552223], [-81.9867649, 29.0551412], [-81.9867439, 29.0551214], [-81.9867174, 29.0551088], [-81.9866863, 29.0551006], [-81.9866656, 29.055082], [-81.9866605, 29.0550679], [-81.9866565, 29.0550112], [-81.9865908, 29.0548601], [-81.9865909, 29.0548502], [-81.9866879, 29.0547168], [-81.986713, 29.0546988], [-81.9868192, 29.0546562], [-81.9869896, 29.0545622], [-81.987023, 29.0545579], [-81.9870572, 29.0545681], [-81.9870873, 29.0545662], [-81.987115, 29.0545568], [-81.9872264, 29.0545011], [-81.9872267, 29.0541954], [-81.9870349, 29.0542057], [-81.9868387, 29.0542999], [-81.986587, 29.0544686], [-81.9864248, 29.0546314], [-81.9863263, 29.0548094], [-81.9862877, 29.054944], [-81.9862176, 29.0551552], [-81.9860929, 29.0552655], [-81.9859474, 29.0554424], [-81.9858733, 29.0556072], [-81.985817, 29.0556698], [-81.9853506, 29.0557065], [-81.9851, 29.0556897], [-81.984954, 29.0555918], [-81.9847573, 29.0552386], [-81.9845496, 29.0550504], [-81.9839835, 29.0547729], [-81.9842402, 29.0547107], [-81.9845176, 29.0545321], [-81.9847183, 29.0543137], [-81.9848528, 29.0540298], [-81.9848518, 29.0537809], [-81.9847291, 29.0535417], [-81.984533, 29.0533712], [-81.9842929, 29.0532781], [-81.9840423, 29.053279], [-81.9837928, 29.0533754], [-81.9835714, 29.0535594], [-81.9834181, 29.0538109], [-81.9833581, 29.0541002], [-81.983401, 29.0543982], [-81.9835063, 29.0546043], [-81.9833483, 29.0545868], [-81.9831254, 29.0546133], [-81.9828955, 29.0546992], [-81.9827013, 29.0548283], [-81.982473, 29.0550831], [-81.982229, 29.0554812], [-81.982013, 29.0559719], [-81.981888, 29.0563202], [-81.981888, 29.0564893], [-81.9820392, 29.0564899]]]}}, {"type": "Feature", "properties": {"KIND": "conservation", "NAME": "Conservation Easement C", "SOURCE": "Plat Book 10, Page 195", "ACRES": 2.15}, "geometry": {"type": "Polygon", "coordinates": [[[-81.981888, 29.0563183], [-81.9790846, 29.0563183], [-81.9790846, 29.054589], [-81.9789064, 29.054589], [-81.9788967, 29.0564773], [-81.981888, 29.0564893], [-81.981888, 29.0563183]]]}}, {"type": "Feature", "properties": {"KIND": "conservation", "NAME": "Conservation Easement D", "SOURCE": "Plat Book 10, Page 195", "ACRES": 2.44}, "geometry": {"type": "Polygon", "coordinates": [[[-81.9849035, 29.052082], [-81.9849202, 29.0522186], [-81.9849873, 29.0523427], [-81.9850949, 29.0524423], [-81.9852331, 29.0525062], [-81.9853838, 29.0525421], [-81.9855387, 29.0525598], [-81.9856946, 29.0525525], [-81.9858461, 29.0525193], [-81.9859762, 29.0524433], [-81.9860768, 29.0523382], [-81.9861384, 29.052212], [-81.9861447, 29.0520747], [-81.9860954, 29.0519443], [-81.9860021, 29.0518341], [-81.9858811, 29.0517473], [-81.985747, 29.051677], [-81.9855992, 29.0516326], [-81.9854446, 29.0516135], [-81.9852897, 29.0516308], [-81.9851515, 29.0516949], [-81.9850275, 29.0517784], [-81.9849898, 29.0518217], [-81.9849201, 29.0519453], [-81.9849035, 29.052082]]]}}, {"type": "Feature", "properties": {"KIND": "conservation", "NAME": "Additional conservation easement", "SOURCE": "OR Book 5094, Page 456 (recorded 2008-09-10)", "ACRES": 0.25}, "geometry": {"type": "Polygon", "coordinates": [[[-81.9851066, 29.0556918], [-81.9849593, 29.0555949], [-81.9849329, 29.0555486], [-81.9848561, 29.0555876], [-81.9849035, 29.0556461], [-81.984944, 29.0556829], [-81.9849888, 29.0557144], [-81.9850371, 29.0557401], [-81.9850882, 29.0557596], [-81.9851414, 29.0557726], [-81.9851957, 29.055779], [-81.9855039, 29.0557684], [-81.985514, 29.0559271], [-81.9856538, 29.055908], [-81.9856445, 29.055762], [-81.985784, 29.0557478], [-81.9857894, 29.0556696], [-81.9853578, 29.0557068], [-81.9851066, 29.0556918]]]}}, {"type": "Feature", "properties": {"KIND": "conservation", "NAME": "Additional conservation easement", "SOURCE": "OR Book 8469, Page 1461 (recorded 2024-11-14)", "ACRES": 0.06}, "geometry": {"type": "Polygon", "coordinates": [[[-81.9849653, 29.0522934], [-81.9841987, 29.0522975], [-81.9842308, 29.0523248], [-81.9849806, 29.0523208], [-81.9849653, 29.0522934]]]}}, {"type": "Feature", "properties": {"KIND": "conservation", "NAME": "Additional conservation easement", "SOURCE": "OR Book 5094, Page 456 (recorded 2008-09-10)", "ACRES": 0.19}, "geometry": {"type": "Polygon", "coordinates": [[[-81.9845738, 29.0550287], [-81.984278, 29.0548867], [-81.9843359, 29.0546563], [-81.9842319, 29.0547244], [-81.9839753, 29.0547885], [-81.9845452, 29.055062], [-81.9847551, 29.0552488], [-81.9848241, 29.0553699], [-81.9848764, 29.0553696], [-81.9847937, 29.0552245], [-81.9845738, 29.0550287]]]}}, {"type": "Feature", "properties": {"KIND": "conservation", "NAME": "Additional conservation easement", "SOURCE": "OR Book 5094, Page 456 (recorded 2008-09-10)", "ACRES": 0.02}, "geometry": {"type": "Polygon", "coordinates": [[[-81.983352, 29.0548204], [-81.9832868, 29.0545575], [-81.983262, 29.0545607], [-81.9833267, 29.054822], [-81.983352, 29.0548204]]]}}, {"type": "Feature", "properties": {"KIND": "conservation", "NAME": "Additional conservation easement", "SOURCE": "OR Book 5094, Page 456 (recorded 2008-09-10)", "ACRES": 0.13}, "geometry": {"type": "Polygon", "coordinates": [[[-81.9828731, 29.0546904], [-81.9831028, 29.0546028], [-81.9833258, 29.0545746], [-81.9834843, 29.054591], [-81.9833765, 29.0543829], [-81.9832904, 29.0545375], [-81.9830898, 29.0545628], [-81.9828491, 29.0546546], [-81.9826388, 29.0548001], [-81.9826828, 29.054819], [-81.9828731, 29.0546904]]]}}, {"type": "Feature", "properties": {"KIND": "conservation", "NAME": "Additional conservation easement", "SOURCE": "OR Book 5094, Page 456 (recorded 2008-09-10)", "ACRES": 0.02}, "geometry": {"type": "Polygon", "coordinates": [[[-81.9826482, 29.0553112], [-81.982391, 29.0551541], [-81.9823792, 29.0551737], [-81.9826365, 29.0553308], [-81.9826482, 29.0553112]]]}}, {"type": "Feature", "properties": {"KIND": "conservation", "NAME": "Additional conservation easement", "SOURCE": "OR Book 5094, Page 456 (recorded 2008-09-10)", "ACRES": 0.1}, "geometry": {"type": "Polygon", "coordinates": [[[-81.9822174, 29.0554863], [-81.9824669, 29.0550658], [-81.9826838, 29.0548199], [-81.9826399, 29.0548007], [-81.9824244, 29.0550454], [-81.9821804, 29.0554509], [-81.9821721, 29.0554701], [-81.9821751, 29.0554681], [-81.9822174, 29.0554863]]]}}, {"type": "Feature", "properties": {"KIND": "conservation", "NAME": "Additional conservation easement", "SOURCE": "OR Book 5094, Page 456 (recorded 2008-09-10)", "ACRES": 0.04}, "geometry": {"type": "Polygon", "coordinates": [[[-81.9857853, 29.0557475], [-81.9858769, 29.0557218], [-81.9859072, 29.0557048], [-81.9859313, 29.0556797], [-81.9859598, 29.0556268], [-81.9858838, 29.0555994], [-81.9858263, 29.0556662], [-81.9857908, 29.0556693], [-81.9857853, 29.0557475]]]}}, {"type": "Feature", "properties": {"KIND": "conservation", "NAME": "Additional conservation easement", "SOURCE": "OR Book 5094, Page 456 (recorded 2008-09-10)", "ACRES": 0.02}, "geometry": {"type": "Polygon", "coordinates": [[[-81.984202, 29.055189], [-81.984225, 29.0551996], [-81.9843049, 29.0548816], [-81.984282, 29.0548706], [-81.984202, 29.055189]]]}}, {"type": "Feature", "properties": {"KIND": "conservation", "NAME": "Additional conservation easement", "SOURCE": "OR Book 5094, Page 456 (recorded 2008-09-10)", "ACRES": 0.02}, "geometry": {"type": "Polygon", "coordinates": [[[-81.9823022, 29.05607], [-81.9819899, 29.0559274], [-81.981981, 29.0559481], [-81.9822937, 29.056091], [-81.9823022, 29.05607]]]}}, {"type": "Feature", "properties": {"KIND": "conservation", "NAME": "Additional conservation easement", "SOURCE": "OR Book 5094, Page 456 (recorded 2008-09-10)", "ACRES": 0.11}, "geometry": {"type": "Polygon", "coordinates": [[[-81.9820146, 29.0559566], [-81.9822175, 29.0554849], [-81.9821752, 29.0554667], [-81.9819673, 29.0559489], [-81.9818384, 29.0563182], [-81.9818875, 29.0563181], [-81.9820146, 29.0559566]]]}}, {"type": "Feature", "properties": {"KIND": "drainage", "NAME": "Drainage easement", "SOURCE": "Plat Book 10, Page 195", "ACRES": 0.92}, "geometry": {"type": "Polygon", "coordinates": [[[-81.9814841, 29.0498803], [-81.9813497, 29.049831], [-81.9811955, 29.049803], [-81.981051, 29.0498614], [-81.9809174, 29.0500296], [-81.9808771, 29.050121], [-81.9809592, 29.0502941], [-81.9811314, 29.0504044], [-81.9813993, 29.0504101], [-81.9815825, 29.0503171], [-81.9816429, 29.050101], [-81.9816286, 29.0500491], [-81.9815302, 29.0499496], [-81.9814841, 29.0498803]]]}}, {"type": "Feature", "properties": {"KIND": "drainage", "NAME": "Drainage easement", "SOURCE": "Plat Book 10, Page 195", "ACRES": 2.42}, "geometry": {"type": "Polygon", "coordinates": [[[-81.9794114, 29.0528758], [-81.97985, 29.052675], [-81.9798845, 29.0525836], [-81.979829, 29.0521751], [-81.9797721, 29.0520511], [-81.9795019, 29.0518524], [-81.9793253, 29.0517837], [-81.9791846, 29.05178], [-81.979038, 29.0518629], [-81.9789542, 29.0519484], [-81.9789199, 29.0519935], [-81.9789149, 29.0529602], [-81.9789483, 29.0530031], [-81.9794114, 29.0528758]]]}}, {"type": "Feature", "properties": {"KIND": "drainage", "NAME": "Drainage easement", "SOURCE": "Plat Book 10, Page 195", "ACRES": 0.13}, "geometry": {"type": "Polygon", "coordinates": [[[-81.9807099, 29.0527958], [-81.9807099, 29.0527365], [-81.9798672, 29.0524419], [-81.9798672, 29.0525012], [-81.9807099, 29.0527958]]]}}, {"type": "Feature", "properties": {"KIND": "drainage", "NAME": "Drainage easement", "SOURCE": "Plat Book 10, Page 195", "ACRES": 0.74}, "geometry": {"type": "Polygon", "coordinates": [[[-81.984214, 29.050854], [-81.9840917, 29.0508413], [-81.9836015, 29.0509715], [-81.9833272, 29.0509797], [-81.9833107, 29.0511642], [-81.9836272, 29.0513821], [-81.9836663, 29.051402], [-81.9838403, 29.0514283], [-81.9839062, 29.0512879], [-81.9839323, 29.0512185], [-81.983965, 29.0511513], [-81.9840041, 29.0510868], [-81.9840493, 29.0510253], [-81.9841001, 29.0509675], [-81.9842034, 29.0508757], [-81.984214, 29.050854]]]}}, {"type": "Feature", "properties": {"KIND": "drainage", "NAME": "Drainage easement", "SOURCE": "Plat Book 11, Page 1", "ACRES": 0.28}, "geometry": {"type": "Polygon", "coordinates": [[[-81.9835563, 29.0523778], [-81.9835789, 29.0523878], [-81.9836015, 29.0523778], [-81.9838113, 29.0521941], [-81.9836218, 29.0520317], [-81.9835997, 29.0520188], [-81.9835741, 29.0520128], [-81.983535, 29.0520179], [-81.9834444, 29.0520652], [-81.9833624, 29.052102], [-81.9832783, 29.0521331], [-81.9835563, 29.0523778]]]}}, {"type": "Feature", "properties": {"KIND": "drainage", "NAME": "Drainage easement", "SOURCE": "Plat Book 10, Page 195", "ACRES": 0.32}, "geometry": {"type": "Polygon", "coordinates": [[[-81.9850464, 29.0528074], [-81.9850155, 29.052717], [-81.9847381, 29.0525994], [-81.9846456, 29.052518], [-81.9845942, 29.0524276], [-81.9845531, 29.0523371], [-81.9844812, 29.0523281], [-81.984399, 29.0523914], [-81.9843787, 29.0524509], [-81.9849294, 29.0529207], [-81.9849539, 29.052925], [-81.9850464, 29.0528074]]]}}, {"type": "Feature", "properties": {"KIND": "drainage", "NAME": "Drainage easement", "SOURCE": "Plat Book 11, Page 1", "ACRES": 0.32}, "geometry": {"type": "Polygon", "coordinates": [[[-81.9844812, 29.0527712], [-81.9844195, 29.0528346], [-81.9843579, 29.0529159], [-81.984327, 29.0529973], [-81.9843579, 29.0530426], [-81.9844195, 29.0530606], [-81.9845017, 29.0530697], [-81.9846456, 29.0532415], [-81.984697, 29.0532777], [-81.9847483, 29.0532596], [-81.9847895, 29.0531873], [-81.98481, 29.0530878], [-81.9847763, 29.053021], [-81.9844713, 29.0527596], [-81.9844812, 29.0527712]]]}}, {"type": "Feature", "properties": {"KIND": "drainage", "NAME": "Drainage easement", "SOURCE": "Plat Book 10, Page 195", "ACRES": 0.42}, "geometry": {"type": "Polygon", "coordinates": [[[-81.9864696, 29.0481409], [-81.9865189, 29.0477249], [-81.9864953, 29.0476842], [-81.9864388, 29.0476706], [-81.9864285, 29.0476525], [-81.9864316, 29.0475892], [-81.9863154, 29.0473269], [-81.986411, 29.0469851], [-81.9863504, 29.0469715], [-81.9862507, 29.0473269], [-81.9863637, 29.047648], [-81.9863617, 29.0476977], [-81.9863206, 29.0477294], [-81.9862918, 29.047761], [-81.9862661, 29.0482042], [-81.9864336, 29.0482042], [-81.9864388, 29.048177], [-81.9864696, 29.0481409]]]}}, {"type": "Feature", "properties": {"KIND": "drainage", "NAME": "Drainage easement", "SOURCE": "Plat Book 10, Page 195", "ACRES": 0.3}, "geometry": {"type": "Polygon", "coordinates": [[[-81.9833662, 29.0491266], [-81.9833457, 29.0490633], [-81.9832686, 29.049], [-81.9831864, 29.0489729], [-81.9830014, 29.0489702], [-81.9829192, 29.048991], [-81.9828473, 29.0490452], [-81.9828216, 29.0491176], [-81.9828473, 29.0491809], [-81.9828771, 29.0492072], [-81.9832929, 29.049226], [-81.9833405, 29.0491809], [-81.9833662, 29.0491266]]]}}, {"type": "Feature", "properties": {"KIND": "conservation-outline", "NAME": "", "SOURCE": "", "ACRES": 0}, "geometry": {"type": "MultiPolygon", "coordinates": [[[[-81.98657670490968, 29.04792838078528], [-81.98657689823848, 29.04688150000155], [-81.9867658803966, 29.04693890296579], [-81.98676749876209, 29.047753768221764], [-81.98677952766661, 29.04775950074658], [-81.98723438104152, 29.047761806202352], [-81.98723089009911, 29.05047035699661], [-81.98704250481528, 29.05046949801714], [-81.9870425, 29.0479284], [-81.98657670490968, 29.04792838078528]]], [[[-81.98491918500822, 29.051944896527502], [-81.98498898317939, 29.051821123108233], [-81.98502687128325, 29.051777622365602], [-81.98515100880239, 29.051694028951836], [-81.98528927923587, 29.051629892829922], [-81.98544460584883, 29.051612500017104], [-81.98559940589232, 29.051631621425347], [-81.98574746430312, 29.05167611432364], [-81.98588156430311, 29.051746414323638], [-81.98600280771794, 29.051833393504918], [-81.9860962315817, 29.051943744597565], [-81.98614563538247, 29.0520743463623], [-81.98613936891904, 29.052212247378055], [-81.98607752240298, 29.052338891472303], [-81.98597678229928, 29.052444112974506], [-81.98584660440739, 29.0525201634658], [-81.9856947308846, 29.05255349139761], [-81.98553874677364, 29.052560798905514], [-81.9853836864715, 29.05254309353474], [-81.98523268031718, 29.052507107670827], [-81.98509430101193, 29.052443100757937], [-81.98498662070078, 29.05234343386141], [-81.98497487921038, 29.052321830533245], [-81.98423080533469, 29.05232579998577], [-81.98419781162114, 29.05229795911113], [-81.98495898458246, 29.05229243376239], [-81.98491924725862, 29.052218903782578], [-81.98490250739037, 29.052082121351248], [-81.98491918500822, 29.051944896527502]]], [[[-81.983348181944, 29.05458580699306], [-81.98350456480729, 29.0546031016958], [-81.98340003177559, 29.054398450082985], [-81.98335710047306, 29.054100169244563], [-81.98341715038806, 29.053810586571895], [-81.98357068027981, 29.053558705735757], [-81.98379224765839, 29.053374566382136], [-81.98404211492557, 29.053278017275492], [-81.98429308213501, 29.05327711672647], [-81.98453344067427, 29.05337030233292], [-81.98472988720131, 29.053541083303887], [-81.98485268976711, 29.053780443585183], [-81.9848537382899, 29.054030145849776], [-81.98471915632436, 29.05431421643836], [-81.98451827606871, 29.054532836838586], [-81.98424064448072, 29.05471159578842], [-81.9839864250715, 29.054773220174514], [-81.9840019250408, 29.05478081819868], [-81.98423149362279, 29.054723470785955], [-81.98433655824928, 29.054655547199964], [-81.98428320980803, 29.054870071745313], [-81.98430570565934, 29.054881007620875], [-81.98430202994778, 29.054897126417348], [-81.98457431488383, 29.055027842740035], [-81.98479436499602, 29.055223753153097], [-81.98487739975674, 29.055369577944045], [-81.9848320980396, 29.055370854138594], [-81.98493099914914, 29.055548443726224], [-81.98493376870462, 29.05554810466951], [-81.98496004992394, 29.055594196353383], [-81.98510412402838, 29.055688974226577], [-81.98535152937386, 29.055705423778488], [-81.98578995413502, 29.055668767700332], [-81.98581924117832, 29.05566581259865], [-81.98587245201325, 29.055606647442936], [-81.98594657450835, 29.055441835585672], [-81.98609212767924, 29.055264864767263], [-81.98621673574772, 29.055154629392593], [-81.98628674442432, 29.05494370453529], [-81.98632537598849, 29.05480901763536], [-81.98642409158899, 29.05463069419985], [-81.9865863643431, 29.0544678280283], [-81.98683826717932, 29.054298998519968], [-81.987034651981, 29.05420473124483], [-81.98722769552572, 29.05419530550913], [-81.98722709277473, 29.054501821154048], [-81.9871154472136, 29.054557694427192], [-81.98708753684488, 29.05456717154748], [-81.98705708683931, 29.054569093576703], [-81.98702291738734, 29.05455891888902], [-81.98698991641177, 29.054563167517614], [-81.986819683023, 29.05465707560766], [-81.98671348451262, 29.054699683100598], [-81.98668861389403, 29.054717518603983], [-81.98659189672128, 29.0548505296436], [-81.98659180210318, 29.05485989683711], [-81.98665745624477, 29.055010907432187], [-81.98666148772475, 29.055067690768645], [-81.98666645502345, 29.05508142388863], [-81.98668678861995, 29.055099694656484], [-81.98671774366403, 29.055107860907334], [-81.9867444208847, 29.055120546372965], [-81.98676564659006, 29.05514053471564], [-81.98680673016285, 29.05522193285282], [-81.98680523697493, 29.055240347241234], [-81.98678867481375, 29.05525148460152], [-81.98677022293204, 29.055250904540177], [-81.98673359059515, 29.05526128166873], [-81.98666962563422, 29.055268181468787], [-81.98664898955784, 29.05527558675936], [-81.98663031806866, 29.05529020781966], [-81.98660764205381, 29.055319940343775], [-81.98652904205382, 29.055370640343778], [-81.98646591732019, 29.055400960904205], [-81.98642147134633, 29.055433673936413], [-81.98637297231936, 29.055522435234465], [-81.98631500194578, 29.0555621314287], [-81.98629610060836, 29.055587465158453], [-81.98627617724546, 29.055649127966575], [-81.98626886585309, 29.055698859090327], [-81.98625312928571, 29.055738469361668], [-81.98623061375257, 29.055776081211466], [-81.9862019643262, 29.055810044829784], [-81.98610848733897, 29.055859821937375], [-81.98604180202179, 29.05588095330102], [-81.98595299070836, 29.055872014360187], [-81.98588228750377, 29.05589229616419], [-81.98581071687812, 29.055891701014534], [-81.9857708585929, 29.05590148734406], [-81.9856266945139, 29.05591271254298], [-81.98546785185674, 29.055936198654535], [-81.98541652713152, 29.05593310948454], [-81.98535329455993, 29.055953395519172], [-81.98529094329511, 29.055945812694933], [-81.98525241230729, 29.055953893673525], [-81.98519738488258, 29.055954893351892], [-81.98509030463084, 29.055942480729776], [-81.98502529296714, 29.055923937889087], [-81.98499886713083, 29.05593108593473], [-81.9849860875468, 29.055929549933158], [-81.98496931541688, 29.055915216238446], [-81.98487899148215, 29.05586199354018], [-81.98482109148215, 29.05581759354018], [-81.9848075235662, 29.05580154899857], [-81.98473746892466, 29.055753682296753], [-81.98470189199388, 29.055693018956926], [-81.98468719435412, 29.055650740316263], [-81.98464670816483, 29.055587652360504], [-81.98458006411471, 29.05545626266649], [-81.98446989643166, 29.055329514896965], [-81.98443340865272, 29.05529880933436], [-81.9843940294264, 29.055273985467643], [-81.98417409726137, 29.05517721531503], [-81.98408883459612, 29.055132385098435], [-81.98392152512098, 29.05499742107232], [-81.98387804035997, 29.054971190585746], [-81.98380440315721, 29.054939167840566], [-81.98373837561911, 29.054891055226655], [-81.98369647192452, 29.054869755011353], [-81.98360480964558, 29.054851981715437], [-81.9835292697566, 29.054830901867238], [-81.98345591161171, 29.054831896086096], [-81.98342763437186, 29.054823394515747], [-81.98336081270712, 29.054820901170046], [-81.98328921169932, 29.05482539495715], [-81.98322031001193, 29.05483657899916], [-81.98315320704587, 29.054854553007925], [-81.98308880186981, 29.054878917136545], [-81.98302799476738, 29.054909370611497], [-81.98297202965016, 29.054945184296134], [-81.98291463175725, 29.05500238254418], [-81.9828613020033, 29.05506391217368], [-81.98274506379269, 29.055161764185375], [-81.98260936906779, 29.05537799642744], [-81.98249260925154, 29.055603618777845], [-81.98223038976452, 29.05624945641988], [-81.9821822517813, 29.056312732004088], [-81.98214020141069, 29.056396298114453], [-81.98203956654028, 29.056490830402183], [-81.97889577427324, 29.05647767819301], [-81.97890601850334, 29.054588075629784], [-81.97908559518471, 29.05458890198286], [-81.97908559999999, 29.0563173], [-81.98183765497102, 29.0563173], [-81.9819663817141, 29.05594850408205], [-81.9821794820959, 29.055450503197708], [-81.98242364953597, 29.055044739088697], [-81.98263823103406, 29.054799277638917], [-81.98284874364957, 29.054653665647617], [-81.98308955753187, 29.05456182984063], [-81.98328977264502, 29.054536571201083], [-81.98337661282702, 29.054381906385355], [-81.98348529407505, 29.054591108695863], [-81.98332581141774, 29.054575606520164], [-81.98329333915524, 29.054579712878024], [-81.98329637792652, 29.05459196583767], [-81.983348181944, 29.05458580699306]], [[-81.98193043018779, 29.056199012115165], [-81.98201505032345, 29.05596476004465], [-81.9820131037702, 29.055963870494086], [-81.98193043018779, 29.056199012115165]], [[-81.98222808474824, 29.055480797117625], [-81.98240567251598, 29.055191035023306], [-81.98239692477767, 29.055185693905205], [-81.98221756206925, 29.055487286443203], [-81.9820223485127, 29.055941117072223], [-81.98202493732565, 29.05594229915588], [-81.98222808474824, 29.055480797117625]], [[-81.98247214740182, 29.05508257743292], [-81.98270061420439, 29.054827572205813], [-81.98289494638883, 29.054698367224717], [-81.98312504999313, 29.054612363252865], [-81.98326950261763, 29.05459516097309], [-81.98326651738398, 29.054583104689456], [-81.98310304435584, 29.05460377706342], [-81.98287356423312, 29.054691293209483], [-81.9826844167431, 29.05481911437195], [-81.98246771207893, 29.05506639105882], [-81.98240961837942, 29.055164300480232], [-81.9824186698187, 29.055169829178173], [-81.98247214740182, 29.05508257743292]]]]}}]}