{"type":"FeatureCollection","features":[{"type":"Feature","geometry":{"type":"Polygon","coordinates":[[[-81.982425751259569,29.047745708981314],[-81.982427095288557,29.047443191806853],[-81.980580185825843,29.047436862364229],[-81.980578846675897,29.04773938493323],[-81.980575939370922,29.048136123615922],[-81.980892272687029,29.048138192817497],[-81.981989099834195,29.048145368669243],[-81.982423559577981,29.048148206167312],[-81.982425751259569,29.047745708981314]]]},"properties":{"PARCEL":"39393+001-00","ACRES":3.48}},{"type":"Feature","geometry":{"type":"Polygon","coordinates":[[[-81.981089447428346,29.05252682732954],[-81.981031244084448,29.052597884658894],[-81.980978780221278,29.052672312798787],[-81.980932308520778,29.052749755390302],[-81.980892052918023,29.052829839828952],[-81.980856013069939,29.052918210511294],[-81.98082754182208,29.053008688189788],[-81.980806794342257,29.05310077392944],[-81.980793885753869,29.053193958863172],[-81.980788887026932,29.053287729604964],[-81.980789184294466,29.053440184617742],[-81.980790419562709,29.054072273858971],[-81.980787208456533,29.05416675764679],[-81.980776357428255,29.054260801830708],[-81.980759400834515,29.054347714404507],[-81.980735919615967,29.054433447659122],[-81.980706018569961,29.054517622647868],[-81.980669828165361,29.054599870351993],[-81.980627508651295,29.054679827170094],[-81.980511663099222,29.054884792578552],[-81.980508579081857,29.054891710827256],[-81.980504314237564,29.054898127235784],[-81.980498971284149,29.054903886626484],[-81.980492678608499,29.054908850968797],[-81.980485588212801,29.054912899378941],[-81.980477869551606,29.054915936239514],[-81.980469709532841,29.054917886688266],[-81.980461305327879,29.054918704737407],[-81.9804311028619,29.054927667214944],[-81.980403078618068,29.054941015995066],[-81.98037804904348,29.054958362315027],[-81.980356744350885,29.05497919739636],[-81.980339786949813,29.05500291590096],[-81.980327672960868,29.055028824048463],[-81.980320753726588,29.055056165779565],[-81.980319231699454,29.05508414350771],[-81.980323096814104,29.055111707877977],[-81.980332201307903,29.055138303965041],[-81.980346284499205,29.055163168399353],[-81.980364941931185,29.055185587415394],[-81.980387637690228,29.055204917606218],[-81.980413721971345,29.055220012074901],[-81.980442071229731,29.055231529321549],[-81.980472055000448,29.055239213005024],[-81.980503200104408,29.055241889187059],[-81.980533895258077,29.055240021406107],[-81.980563822095633,29.055233745860853],[-81.980592169337299,29.055223234770356],[-81.980618165731656,29.055208774047617],[-81.980641103675765,29.055190756084421],[-81.980660360781911,29.055169670731694],[-81.980675411175866,29.055146091766392],[-81.980685848091667,29.055120659751481],[-81.980691386954661,29.055094067599377],[-81.980691876681391,29.055067036212119],[-81.980687304815987,29.055040301849751],[-81.98067779548029,29.055014591768753],[-81.980674187462213,29.055001057023727],[-81.980673260714966,29.054987180699772],[-81.980675043914616,29.054973368827795],[-81.980679482559509,29.054960026524444],[-81.980737208828558,29.054856422197815],[-81.98079532943737,29.054752111414523],[-81.98084065537391,29.054673227786399],[-81.980879850173068,29.054591848459999],[-81.980912737154839,29.05450834064418],[-81.980939168392055,29.054423080573997],[-81.980959024710259,29.0543364535107],[-81.980972215687828,29.054248850132307],[-81.980978681709601,29.054160666534045],[-81.980978393966936,29.054072300619087],[-81.980978537105187,29.053292181394866],[-81.980979597648698,29.05321499583523],[-81.980987348196436,29.053138105366052],[-81.981001742442601,29.05306195660917],[-81.981022698142141,29.052986993473613],[-81.981050093004725,29.05291365083902],[-81.981083767775672,29.052842355458381],[-81.981123526237084,29.05277352144698],[-81.981169138288948,29.052707549380425],[-81.981220336869399,29.052644822685309],[-81.981236321018386,29.052633685345754],[-81.981254069928966,29.052624849972165],[-81.981273159468117,29.052618529443205],[-81.981293130600946,29.052614875277815],[-81.98131350479396,29.052613974930313],[-81.98134363636926,29.052606754547732],[-81.981372040479542,29.052595343720959],[-81.981397968483478,29.052580043709522],[-81.981420734361606,29.052561256837716],[-81.98143818637071,29.052541562434101],[-81.981452146373755,29.052519823877017],[-81.981462308281834,29.052496515725608],[-81.981468451230512,29.052472145935084],[-81.981470442661944,29.052447246834081],[-81.981486337333308,29.052419324298778],[-81.981507375059763,29.052394163452984],[-81.981591725294393,29.052350115706854],[-81.981679336874535,29.052311294370234],[-81.981769791844386,29.052277885250241],[-81.981862657879063,29.052250046182174],[-81.981957491364128,29.052227911541522],[-81.982053837396052,29.052211587732689],[-81.982151237997201,29.052201151385542],[-81.982249225953382,29.052196652963879],[-81.982603033217387,29.052201217896531],[-81.982826563954532,29.052204101490741],[-81.982918640913653,29.052201780835759],[-81.983010272162375,29.052193490562857],[-81.983100955542724,29.052179275723844],[-81.98319019607986,29.052159215659422],[-81.983277507010271,29.052133418585694],[-81.98336241080824,29.052102026105455],[-81.983444445347999,29.052065209599803],[-81.983523159796533,29.052023170227557],[-81.983535004435737,29.052017852727246],[-81.983547674389115,29.052014295679456],[-81.98356083385957,29.052012591977899],[-81.983574132681511,29.052012787595963],[-81.98358721864399,29.052014876174621],[-81.983599746731585,29.052018803534839],[-81.983611382205311,29.052024464971172],[-81.983621819085215,29.052031710667745],[-81.984663267469472,29.052924150918212],[-81.985537001150874,29.053672852263166],[-81.985592522477319,29.053723019692182],[-81.985642051391068,29.053777818772517],[-81.985685031394183,29.053836725225551],[-81.985721084675291,29.053899116442853],[-81.985749847796612,29.053964366207683],[-81.985771033310741,29.054031817632968],[-81.985784427706051,29.054100793988272],[-81.985789896541334,29.054170601406891],[-81.985785759330852,29.054259807769686],[-81.985785167437513,29.054270284101367],[-81.985782674816036,29.054280542781886],[-81.985778347222634,29.05429031854721],[-81.985772295594685,29.054299359672303],[-81.985764675022978,29.054307433384679],[-81.985755681670312,29.054314332180052],[-81.985733862835161,29.054334154799903],[-81.985716111070431,29.054356896730514],[-81.9857029214227,29.054381920112995],[-81.985694664695615,29.054408525719708],[-81.985691569990394,29.054435968291195],[-81.985693726755883,29.054463479995558],[-81.985701072462689,29.054490290277151],[-81.98571340286793,29.054515650219606],[-81.985731098933158,29.054539673549488],[-81.985753256211865,29.054560645833366],[-81.985779208343345,29.05457793540122],[-81.985808171885125,29.054591020649184],[-81.985839274036493,29.054599508088469],[-81.985871579336703,29.054603141371146],[-81.985901607645602,29.054602090662229],[-81.985931060441516,29.054596839764585],[-81.985959180888671,29.054587523941724],[-81.98598524807872,29.054574383126152],[-81.986008592435653,29.054557752898113],[-81.986028614200464,29.054538060878173],[-81.986044801916876,29.054515813194712],[-81.986056738594868,29.054491579145626],[-81.986064117114822,29.0544659812746],[-81.986066750498864,29.054439676424099],[-81.986064944368891,29.054415586214656],[-81.986059152841946,29.054391986432677],[-81.986049501132229,29.05436938327076],[-81.98603619455325,29.054348260372564],[-81.986019518518631,29.054329072516669],[-81.98599983238239,29.054312231179889],[-81.985991210821552,29.054303596345903],[-81.985984316629541,29.054293835643946],[-81.9859793376895,29.054283214364755],[-81.985976408483751,29.05427201854593],[-81.985975608040334,29.054260553167119],[-81.985976443326763,29.054166267509096],[-81.985972320126066,29.05409241440676],[-81.985960856718506,29.054019162358244],[-81.985942140327879,29.053947073492438],[-81.985916315683397,29.053876700018019],[-81.985883579884927,29.053808583320858],[-81.985844184457434,29.05374324494133],[-81.985798432269817,29.053681187476801],[-81.985746674455072,29.053622886460658],[-81.985689308356342,29.053568789460272],[-81.985580264131798,29.053475785912052],[-81.984228284161986,29.052322670898814],[-81.983773869975039,29.051935089296887],[-81.983765819944949,29.05192508472183],[-81.983759773479122,29.051914043666411],[-81.98375589893358,29.051902273829487],[-81.983754304076555,29.051890101850429],[-81.983755034036164,29.051877865188246],[-81.983758068220723,29.051865906707707],[-81.983763322375381,29.051854556633661],[-81.98377064960934,29.051844131649176],[-81.983833110929623,29.05177404810118],[-81.983889597482161,29.051700152566823],[-81.983939809370781,29.051622838412669],[-81.983983478532096,29.051542516152036],[-81.984020373869669,29.051459612543223],[-81.984125520501649,29.051238976409071],[-81.984164368080641,29.051180215353643],[-81.984208674912168,29.051124518176799],[-81.984258132877201,29.051072274623003],[-81.984312392788581,29.051023851874756],[-81.984371073633525,29.050979589140063],[-81.984433765654245,29.050939796750864],[-81.984500027267572,29.050904755260404],[-81.984569395334248,29.050874709128795],[-81.984590219554946,29.050869512569534],[-81.984611736436037,29.050867413621486],[-81.984633351425913,29.050868470864678],[-81.984654469985983,29.050872654455794],[-81.984674509912281,29.05087984973872],[-81.984703821190024,29.050887465636322],[-81.984734120901066,29.050890998812559],[-81.98476467896559,29.050890363467122],[-81.98479475502009,29.050885575757111],[-81.984823624089529,29.050876751092979],[-81.984850587883429,29.050864101433117],[-81.984874795075726,29.050848085944413],[-81.984895916005385,29.050828993321588],[-81.984913448477954,29.050807276455402],[-81.984926975519627,29.050783450503559],[-81.984929471297491,29.050772673021623],[-81.98493382970706,29.050762362228561],[-81.984939947000171,29.050752767142502],[-81.984947677330979,29.050744116926506],[-81.984956834810063,29.050736618182157],[-81.984967199666002,29.050730452243322],[-81.985033221479668,29.050697007501441],[-81.985096036027187,29.050659091562128],[-81.985155249988594,29.050616938979733],[-81.985210495712877,29.050570814087177],[-81.985261429165405,29.050521002874998],[-81.985307730954304,29.05046781750281],[-81.985351370272085,29.050406081796279],[-81.985388927973588,29.050341332692597],[-81.985420137023183,29.050274031234128],[-81.985444776592686,29.050204657415499],[-81.985462670008147,29.050133703867296],[-81.985473689883435,29.05006167766113],[-81.985477757094117,29.049989091286513],[-81.985474844884479,29.049916461748932],[-81.985464971679605,29.049844307862411],[-81.985448208273681,29.049773142129457],[-81.985424675775818,29.049703471643458],[-81.985192547987126,29.048949533283523],[-81.984959356711599,29.048195544693851],[-81.98482236095866,29.047755822571816],[-81.984800272017878,29.047679130554702],[-81.984784344174258,29.04760126897061],[-81.98477465539645,29.047522618593799],[-81.984771252847224,29.047443565607946],[-81.984774072635361,29.047365570802121],[-81.984783011141701,29.047287933090448],[-81.984798027225921,29.047211022403015],[-81.984819046890649,29.047135205958522],[-81.984845971496895,29.047060844656219],[-81.984937014464592,29.046828799488704],[-81.985061119809529,29.046599204924281],[-81.985095596647682,29.046507803891473],[-81.985101681976047,29.046497287557507],[-81.985109648262238,29.046487792816034],[-81.985119281893844,29.046479575891379],[-81.985130319976889,29.046472860520243],[-81.985142462658629,29.046467828930268],[-81.985155381342636,29.046464617329512],[-81.985168723823023,29.046463314102596],[-81.98518212968736,29.046463953496385],[-81.985195233396539,29.046466518327218],[-81.984813193028373,29.04635003155088],[-81.984825295231374,29.046354985549673],[-81.984836235862289,29.046361709695262],[-81.98484568123996,29.046370001838905],[-81.984853345950228,29.046379607504925],[-81.984858995924043,29.046390237034462],[-81.984862460758634,29.046401567391253],[-81.984863634742979,29.046413253891508],[-81.984862483016713,29.046424941934184],[-81.984859039515328,29.046436276925824],[-81.984825238670098,29.046516970584417],[-81.984757624551875,29.046775806223248],[-81.984668804144462,29.047008715009252],[-81.984641823671367,29.047085139790983],[-81.984620138231818,29.047162856339551],[-81.984603827970432,29.047241580447629],[-81.984592952496754,29.047321025198045],[-81.984587337288559,29.047407938744765],[-81.984588225893219,29.047494988379086],[-81.984595612221995,29.047581798750535],[-81.984609466568756,29.047667997211871],[-81.984629728422576,29.047753210209226],[-81.984810380762809,29.048339827281175],[-81.985058992745607,29.049154273465426],[-81.985064268970049,29.049165979363444],[-81.985067291214662,29.049178287735316],[-81.985067976353591,29.049190863825157],[-81.985066308005472,29.049203369275233],[-81.985062329345055,29.049215465734328],[-81.985056149262959,29.049226825685796],[-81.98504793517651,29.049237141469664],[-81.985037907894153,29.049246136109396],[-81.985026338534709,29.04925356511632],[-81.985013540311044,29.049259228218229],[-81.984999859288266,29.049262971163156],[-81.984985665140954,29.049264694741094],[-81.984897530145972,29.049278488878219],[-81.98480852515695,29.049286937737541],[-81.984719070167841,29.04929000076244],[-81.984629587222656,29.049287663563788],[-81.983079629616583,29.049216157198462],[-81.982715703730179,29.049200005108577],[-81.982607023467423,29.049196495634117],[-81.982498816577206,29.049186926404097],[-81.982391520502105,29.049171334470557],[-81.982285568572067,29.049149783954899],[-81.982181387951073,29.049122361536003],[-81.982079401690299,29.049089178255201],[-81.981980020513177,29.049050368612537],[-81.981867430246467,29.04902347536315],[-81.981753296754036,29.049002188593214],[-81.981637981450177,29.048986576019498],[-81.981521849858794,29.048976687314784],[-81.980889012064637,29.048970845793047],[-81.980762577796781,29.048969678232655],[-81.980747304424838,29.048971386771527],[-81.980731914382517,29.048971003801018],[-81.980716774246702,29.048968540201109],[-81.980702249558831,29.048964052868222],[-81.980688685313766,29.048957651028346],[-81.980676408015455,29.048949486312207],[-81.980665711300517,29.048939755460033],[-81.980643526741517,29.048922849805489],[-81.980618577350924,29.048909244297754],[-81.98059149045568,29.048899280088776],[-81.980562950900563,29.048893209915526],[-81.980533677433939,29.048891185464736],[-81.98050440833191,29.04889326007779],[-81.980475881890897,29.048899378822743],[-81.980448816916308,29.048909389319018],[-81.980423897321216,29.048923038125789],[-81.98040175158792,29.048939981566249],[-81.98038281411641,29.048959944509075],[-81.980367742195014,29.04898230628131],[-81.980356919968088,29.049006493088701],[-81.980350625825977,29.049031886909496],[-81.980349019053548,29.049057838124195],[-81.980352141880303,29.049083681756933],[-81.980359914342145,29.049108757324912],[-81.980372138385363,29.049132423275516],[-81.98038849888998,29.049154074129937],[-81.980410182736719,29.049174438201813],[-81.980435509433889,29.049191243296459],[-81.980463733594164,29.049203995754862],[-81.980494024579443,29.049212319202734],[-81.980525489089118,29.049215968088379],[-81.98055719991045,29.049214834905044],[-81.980588222616063,29.049208953804264],[-81.980617644316624,29.049198496990684],[-81.980644597278683,29.049183773823192],[-81.980668288705743,29.049165217284681],[-81.980674794211666,29.049156854062225],[-81.980682673435737,29.049149459186143],[-81.980691740489746,29.049143203160945],[-81.980701785872995,29.049138233028277],[-81.980712574420124,29.049134663344045],[-81.980723855569252,29.049132577984381],[-81.980735366443355,29.049132024732408],[-81.980746839037437,29.0491330179862],[-81.980888219837993,29.049135341708752],[-81.981503494902867,29.04914002769948],[-81.981603691104141,29.049145166427305],[-81.981703106721213,29.049157273301788],[-81.981801116447343,29.049176270643688],[-81.981897103196317,29.049202040173771],[-81.981990460156368,29.049234418501797],[-81.982094372488035,29.0492698036756],[-81.982200347643655,29.049300099266738],[-81.982308063199781,29.049325213195122],[-81.982417191595033,29.049345067817381],[-81.982527399103134,29.049359602633846],[-81.982638351994126,29.049368774289118],[-81.982749711400757,29.049372554767103],[-81.983080820598431,29.049386939574038],[-81.984236836102781,29.049437156922188],[-81.984683236331307,29.049453084239548],[-81.984776339314237,29.049453347465434],[-81.984869185486829,29.049447275672581],[-81.984961218282763,29.04943490669503],[-81.98505188523869,29.049416313557781],[-81.985066279599963,29.049414855266214],[-81.985080755821642,29.049415383808228],[-81.985094962729207,29.049417887415153],[-81.985108552235687,29.049422304693231],[-81.985121193716907,29.049428527332164],[-81.985132577091306,29.049436403714409],[-81.985142426168437,29.049445741623508],[-81.985150500701721,29.049456313658126],[-81.985156602548955,29.049467861743828],[-81.985223600500888,29.049683205157645],[-81.985248404444434,29.049743117634208],[-81.985266201009992,29.049804923227846],[-81.985276808525171,29.049867992128178],[-81.985280118223969,29.049931679193122],[-81.985284277017911,29.049996105319707],[-81.985281224313823,29.050060581183114],[-81.985270989965358,29.050124482406744],[-81.985253672623486,29.050187194545487],[-81.985229438710704,29.050248111281185],[-81.985198523446684,29.050306646152521],[-81.985161222633835,29.050362234358889],[-81.985117898817634,29.05041433997949],[-81.985068966910532,29.050462461385759],[-81.985014900352738,29.050506133949039],[-81.984956219816041,29.050544936355699],[-81.984893491149577,29.050578495118575],[-81.984884100105774,29.050582244849419],[-81.984874143470819,29.050584615828544],[-81.984863883099521,29.050585546730062],[-81.984853584948695,29.050585013222353],[-81.984843520103738,29.050583029772469],[-81.984833949376295,29.050579646937784],[-81.984825124330641,29.050574954072705],[-81.984792888769292,29.050566717099873],[-81.984759543511998,29.050563301790131],[-81.984726015780979,29.050564803890033],[-81.984693237952712,29.050571182000727],[-81.984662122914202,29.050582258477384],[-81.98463353633791,29.050597724839683],[-81.984608272036724,29.050617150791506],[-81.984587033478931,29.050639996850613],[-81.984570412223135,29.050665626075538],[-81.984567006653265,29.05067621396713],[-81.984561782626159,29.05068621245919],[-81.984554865451898,29.05069538426574],[-81.98454642151242,29.050703507444183],[-81.984536653124977,29.050710389831423],[-81.984525792381703,29.050715865433919],[-81.984514100121501,29.05071980254835],[-81.984353340331111,29.050779754106404],[-81.984283475862298,29.050819449977826],[-81.984217679969049,29.050864194560329],[-81.984156425046308,29.050913666702908],[-81.984100149610995,29.050967511866766],[-81.984049256247957,29.051025344831299],[-81.984004109555826,29.05108675240071],[-81.983965033066312,29.051151293403308],[-81.983932307189079,29.051218506811622],[-81.983906165104102,29.051287910839456],[-81.983864772563862,29.051381165762553],[-81.983817527221291,29.051472249075388],[-81.983764578002479,29.051560875668759],[-81.983706089236392,29.051646772164393],[-81.983647325785626,29.05170927152108],[-81.983582865974952,29.051767272278578],[-81.983513151415565,29.05182037386972],[-81.983438663763891,29.051868210921594],[-81.983359915480051,29.051910452352317],[-81.983277450853308,29.051946808589754],[-81.983191838814363,29.051977027961616],[-81.983103667799739,29.05200090301112],[-81.983013546778508,29.052018267790455],[-81.982922097036237,29.052029003273496],[-81.982829949093912,29.052033035551048],[-81.982704690844784,29.052032382465249],[-81.98225093237258,29.052030012510766],[-81.982156533860604,29.052032110438134],[-81.98206248868108,29.052039585045467],[-81.981969194219715,29.052052403904728],[-81.981877041705246,29.052070513835623],[-81.981788493652786,29.052093240267375],[-81.981701763268703,29.052120851843707],[-81.981617197640716,29.052153237634865],[-81.981535137700291,29.05219026686084],[-81.981455914114846,29.052231791597602],[-81.981379843181088,29.052277644069431],[-81.981366221753603,29.052283947327144],[-81.981351654931814,29.052288320470787],[-81.981336491868149,29.052290659786181],[-81.981321099163566,29.052290907578016],[-81.981292686249432,29.052288941159176],[-81.981264253157804,29.052290672283469],[-81.981236421143805,29.052296064044146],[-81.981209795047718,29.052304998327273],[-81.981184956106631,29.052317279419764],[-81.981162446550456,29.052332641225469],[-81.981141951035383,29.052351611536228],[-81.98112501929009,29.052373125877981],[-81.981112053938972,29.052396672714721],[-81.981103363145394,29.052421689969176],[-81.981099154446582,29.052447584872148],[-81.981099527564055,29.052473740277065],[-81.981101794943697,29.052484652795421],[-81.981101892527306,29.05249574636704],[-81.981099814213721,29.052506688049029],[-81.981095624754104,29.052517152126569],[-81.981089447428346,29.05252682732954]]]},"properties":{"PARCEL":"39393-000-00","ACRES":10.17}},{"type":"Feature","geometry":{"type":"Polygon","coordinates":[[[-81.983085078369172,29.047319097825628],[-81.984592952496754,29.047321025198045],[-81.984603827970432,29.047241580447629],[-81.984620138231818,29.047162856339551],[-81.984641823671367,29.047085139790983],[-81.984668804144462,29.047008715009252],[-81.984757624551875,29.046775806223248],[-81.984699578992405,29.046762856375437],[-81.984765462745813,29.046506304247039],[-81.984800129318785,29.046417997238382],[-81.984801115365116,29.046415849916723],[-81.984801674278003,29.046413587054509],[-81.984801790645861,29.04641127361436],[-81.984801460351761,29.046408976364773],[-81.984800692627303,29.046406761173387],[-81.984799510052909,29.046404691202607],[-81.98479794753095,29.046402827811594],[-81.984796048179675,29.046401222435321],[-81.984793867439535,29.046399921998773],[-81.984791468966804,29.046398964405054],[-81.983087980957905,29.045884879892636],[-81.983087607866366,29.046069696264617],[-81.983087190203676,29.046275958085868],[-81.983086772538527,29.046482223509926],[-81.983086353845266,29.046688485318366],[-81.983085938230559,29.046894747120863],[-81.983085521587029,29.047101009819173],[-81.983085078369172,29.047319097825628]]]},"properties":{"PARCEL":"39393-000-01","ACRES":5.1299999999999999}},{"type":"Feature","geometry":{"type":"Polygon","coordinates":[[[-81.983084211603867,29.047747954502476],[-81.983074611136345,29.048343925426884],[-81.984810380762809,29.048339827281175],[-81.984629728422576,29.047753210209226],[-81.984609466568756,29.047667997211871],[-81.984595612221995,29.047581798750535],[-81.984588225893219,29.047494988379086],[-81.984587337288559,29.047407938744765],[-81.984592952496754,29.047321025198045],[-81.983085078369172,29.047319097825628],[-81.983084955353078,29.047380811243677],[-81.983084211603867,29.047747954502476]]]},"properties":{"PARCEL":"39393-000-02","ACRES":4.3200000000000003}},{"type":"Feature","geometry":{"type":"Polygon","coordinates":[[[-81.983079629616583,29.049216157198462],[-81.984629587222656,29.049287663563788],[-81.984719070167841,29.04929000076244],[-81.98480852515695,29.049286937737541],[-81.984897530145972,29.049278488878219],[-81.984985665140954,29.049264694741094],[-81.984999859288266,29.049262971163156],[-81.985013540311044,29.049259228218229],[-81.985026338534709,29.04925356511632],[-81.985037907894153,29.049246136109396],[-81.98504793517651,29.049237141469664],[-81.985056149262959,29.049226825685796],[-81.985062329345055,29.049215465734328],[-81.985066308005472,29.049203369275233],[-81.985067976353591,29.049190863825157],[-81.985067291214662,29.049178287735316],[-81.985064268970049,29.049165979363444],[-81.985058992745607,29.049154273465426],[-81.984810380762809,29.048339827281175],[-81.983074611136345,29.048343925426884],[-81.983079629616583,29.049216157198462]]]},"properties":{"PARCEL":"39393-000-03","ACRES":4.5700000000000003}},{"type":"Feature","geometry":{"type":"Polygon","coordinates":[[[-81.981980020513177,29.049050368612537],[-81.982079401690299,29.049089178255201],[-81.982181387951073,29.049122361536003],[-81.982285568572067,29.049149783954899],[-81.982391520502105,29.049171334470557],[-81.982498816577206,29.049186926404097],[-81.982607023467423,29.049196495634117],[-81.982715703730179,29.049200005108577],[-81.983079629616583,29.049216157198462],[-81.983074611136345,29.048343925426884],[-81.983084211603867,29.047747954502476],[-81.982830175187502,29.047747089456799],[-81.982425751259569,29.047745708981314],[-81.982423559577981,29.048148206167312],[-81.981989099834195,29.048145368669243],[-81.981980020513177,29.049050368612537]]]},"properties":{"PARCEL":"39393-000-04","ACRES":3.6699999999999999}},{"type":"Feature","geometry":{"type":"Polygon","coordinates":[[[-81.980889012064637,29.048970845793047],[-81.981521849858794,29.048976687314784],[-81.981637981450177,29.048986576019498],[-81.981753296754036,29.049002188593214],[-81.981867430246467,29.04902347536315],[-81.981980020513177,29.049050368612537],[-81.981989099834195,29.048145368669243],[-81.980892272687029,29.048138192817497],[-81.980889012064637,29.048970845793047]]]},"properties":{"PARCEL":"39393-000-05","ACRES":2.4700000000000002}},{"type":"Feature","geometry":{"type":"Polygon","coordinates":[[[-81.98040175158792,29.048939981566249],[-81.980423897321216,29.048923038125789],[-81.980448816916308,29.048909389319018],[-81.980475881890897,29.048899378822743],[-81.98050440833191,29.04889326007779],[-81.980533677433939,29.048891185464736],[-81.980562950900563,29.048893209915526],[-81.98059149045568,29.048899280088776],[-81.980618577350924,29.048909244297754],[-81.980643526741517,29.048922849805489],[-81.980665711300517,29.048939755460033],[-81.980676408015455,29.048949486312207],[-81.980688685313766,29.048957651028346],[-81.980702249558831,29.048964052868222],[-81.980716774246702,29.048968540201109],[-81.980731914382517,29.048971003801018],[-81.980747304424838,29.048971386771527],[-81.980762577796781,29.048969678232655],[-81.980889012064637,29.048970845793047],[-81.980892272687029,29.048138192817497],[-81.980575939370922,29.048136123615922],[-81.980578846675897,29.04773938493323],[-81.980344115475418,29.047738577525855],[-81.980109382224526,29.047737773317007],[-81.979874654111754,29.047736967796371],[-81.979639923949108,29.047736162767414],[-81.979296325613205,29.047734995014206],[-81.97894206072219,29.047733781400154],[-81.98040175158792,29.048939981566249]]]},"properties":{"PARCEL":"39393-000-06","ACRES":3.5600000000000001}},{"type":"Feature","geometry":{"type":"Polygon","coordinates":[[[-81.978932094846385,29.049652204900642],[-81.97892922654907,29.050204666548119],[-81.98038849888998,29.049154074129937],[-81.980372138385363,29.049132423275516],[-81.980359914342145,29.049108757324912],[-81.980352141880303,29.049083681756933],[-81.980349019053548,29.049057838124195],[-81.980350625825977,29.049031886909496],[-81.980356919968088,29.049006493088701],[-81.980367742195014,29.04898230628131],[-81.98038281411641,29.048959944509075],[-81.98040175158792,29.048939981566249],[-81.97894206072219,29.047733781400154],[-81.978939970588826,29.048135951012945],[-81.97893753303758,29.048605480453016],[-81.978935101931057,29.049073497635714],[-81.978932094846385,29.049652204900642]]]},"properties":{"PARCEL":"39393-000-07","ACRES":5.21}},{"type":"Feature","geometry":{"type":"Polygon","coordinates":[[[-81.979412537869635,29.050764484082713],[-81.980886467766723,29.050769058182457],[-81.980888219837993,29.049135341708752],[-81.980746839037437,29.0491330179862],[-81.980735366443355,29.049132024732408],[-81.980723855569252,29.049132577984381],[-81.980712574420124,29.049134663344045],[-81.980701785872995,29.049138233028277],[-81.980691740489746,29.049143203160945],[-81.980682673435737,29.049149459186143],[-81.980674794211666,29.049156854062225],[-81.980668288705743,29.049165217284681],[-81.980644597278683,29.049183773823192],[-81.980617644316624,29.049198496990684],[-81.980588222616063,29.049208953804264],[-81.98055719991045,29.049214834905044],[-81.980525489089118,29.049215968088379],[-81.980494024579443,29.049212319202734],[-81.980463733594164,29.049203995754862],[-81.980435509433889,29.049191243296459],[-81.980410182736719,29.049174438201813],[-81.98038849888998,29.049154074129937],[-81.97892922654907,29.050204666548119],[-81.978926328279499,29.050762973129988],[-81.979412537869635,29.050764484082713]]]},"properties":{"PARCEL":"39393-000-08","ACRES":6.2999999999999998}},{"type":"Feature","geometry":{"type":"Polygon","coordinates":[[[-81.981501858787979,29.050770961560548],[-81.981988114666166,29.050772466803195],[-81.981990460156368,29.049234418501797],[-81.981897103196317,29.049202040173771],[-81.981801116447343,29.049176270643688],[-81.981703106721213,29.049157273301788],[-81.981603691104141,29.049145166427305],[-81.981503494902867,29.04914002769948],[-81.980888219837993,29.049135341708752],[-81.980886467766723,29.050769058182457],[-81.981501858787979,29.050770961560548]]]},"properties":{"PARCEL":"39393-000-09","ACRES":4.75}},{"type":"Feature","geometry":{"type":"Polygon","coordinates":[[[-81.982707787112972,29.050774687182209],[-81.983085522821483,29.050775851415757],[-81.983080820598431,29.049386939574038],[-81.982749711400757,29.049372554767103],[-81.982638351994126,29.049368774289118],[-81.982527399103134,29.049359602633846],[-81.982417191595033,29.049345067817381],[-81.982308063199781,29.049325213195122],[-81.982200347643655,29.049300099266738],[-81.982094372488035,29.0492698036756],[-81.981990460156368,29.049234418501797],[-81.981988114666166,29.050772466803195],[-81.982707787112972,29.050774687182209]]]},"properties":{"PARCEL":"39393-000-10","ACRES":4.1799999999999997}},{"type":"Feature","geometry":{"type":"Polygon","coordinates":[[[-81.983080820598431,29.049386939574038],[-81.983085522821483,29.050775851415757],[-81.984229136063163,29.050779370543538],[-81.984236836102781,29.049437156922188],[-81.983080820598431,29.049386939574038]]]},"properties":{"PARCEL":"39393-000-11","ACRES":4.2000000000000002}},{"type":"Feature","geometry":{"type":"Polygon","coordinates":[[[-81.984229136063163,29.050779370543538],[-81.984353340331111,29.050779754106404],[-81.984514100121501,29.05071980254835],[-81.984525792381703,29.050715865433919],[-81.984536653124977,29.050710389831423],[-81.98454642151242,29.050703507444183],[-81.984554865451898,29.05069538426574],[-81.984561782626159,29.05068621245919],[-81.984567006653265,29.05067621396713],[-81.984570412223135,29.050665626075538],[-81.984587033478931,29.050639996850613],[-81.984608272036724,29.050617150791506],[-81.98463353633791,29.050597724839683],[-81.984662122914202,29.050582258477384],[-81.984693237952712,29.050571182000727],[-81.984726015780979,29.050564803890033],[-81.984759543511998,29.050563301790131],[-81.984792888769292,29.050566717099873],[-81.984825124330641,29.050574954072705],[-81.984833949376295,29.050579646937784],[-81.984843520103738,29.050583029772469],[-81.984853584948695,29.050585013222353],[-81.984863883099521,29.050585546730062],[-81.984874143470819,29.050584615828544],[-81.984884100105774,29.050582244849419],[-81.984893491149577,29.050578495118575],[-81.984956219816041,29.050544936355699],[-81.985014900352738,29.050506133949039],[-81.985068966910532,29.050462461385759],[-81.985117898817634,29.05041433997949],[-81.985161222633835,29.050362234358889],[-81.985198523446684,29.050306646152521],[-81.985229438710704,29.050248111281185],[-81.985253672623486,29.050187194545487],[-81.985270989965358,29.050124482406744],[-81.985281224313823,29.050060581183114],[-81.985284277017911,29.049996105319707],[-81.985280118223969,29.049931679193122],[-81.985276808525171,29.049867992128178],[-81.985266201009992,29.049804923227846],[-81.985248404444434,29.049743117634208],[-81.985223600500888,29.049683205157645],[-81.985156602548955,29.049467861743828],[-81.985150500701721,29.049456313658126],[-81.985142426168437,29.049445741623508],[-81.985132577091306,29.049436403714409],[-81.985121193716907,29.049428527332164],[-81.985108552235687,29.049422304693231],[-81.985094962729207,29.049417887415153],[-81.985080755821642,29.049415383808228],[-81.985066279599963,29.049414855266214],[-81.98505188523869,29.049416313557781],[-81.984961218282763,29.04943490669503],[-81.984869185486829,29.049447275672581],[-81.984776339314237,29.049453347465434],[-81.984683236331307,29.049453084239548],[-81.984236836102781,29.049437156922188],[-81.984229136063163,29.050779370543538]]]},"properties":{"PARCEL":"39393-000-12","ACRES":3.1000000000000001}},{"type":"Feature","geometry":{"type":"Polygon","coordinates":[[[-81.982704690844784,29.052032382465249],[-81.982829949093912,29.052033035551048],[-81.982922097036237,29.052029003273496],[-81.983013546778508,29.052018267790455],[-81.983103667799739,29.05200090301112],[-81.983191838814363,29.051977027961616],[-81.983277450853308,29.051946808589754],[-81.983359915480051,29.051910452352317],[-81.983438663763891,29.051868210921594],[-81.983513151415565,29.05182037386972],[-81.983582865974952,29.051767272278578],[-81.983647325785626,29.05170927152108],[-81.983706089236392,29.051646772164393],[-81.983764578002479,29.051560875668759],[-81.983817527221291,29.051472249075388],[-81.983864772563862,29.051381165762553],[-81.983906165104102,29.051287910839456],[-81.983932307189079,29.051218506811622],[-81.983965033066312,29.051151293403308],[-81.984004109555826,29.05108675240071],[-81.984049256247957,29.051025344831299],[-81.984100149610995,29.050967511866766],[-81.984156425046308,29.050913666702908],[-81.984217679969049,29.050864194560329],[-81.984283475862298,29.050819449977826],[-81.984353340331111,29.050779754106404],[-81.984229136063163,29.050779370543538],[-81.983085522821483,29.050775851415757],[-81.982707787112972,29.050774687182209],[-81.982704690844784,29.052032382465249]]]},"properties":{"PARCEL":"39393-000-13","ACRES":3.6800000000000002}},{"type":"Feature","geometry":{"type":"Polygon","coordinates":[[[-81.981501858787979,29.050770961560548],[-81.981877041705246,29.052070513835623],[-81.981969194219715,29.052052403904728],[-81.98206248868108,29.052039585045467],[-81.982156533860604,29.052032110438134],[-81.98225093237258,29.052030012510766],[-81.982704690844784,29.052032382465249],[-81.982707787112972,29.050774687182209],[-81.981988114666166,29.050772466803195],[-81.981501858787979,29.050770961560548]]]},"properties":{"PARCEL":"39393-000-14","ACRES":3.4900000000000002}},{"type":"Feature","geometry":{"type":"Polygon","coordinates":[[[-81.979412537869635,29.050764484082713],[-81.981162446550456,29.052332641225469],[-81.981184956106631,29.052317279419764],[-81.981209795047718,29.052304998327273],[-81.981236421143805,29.052296064044146],[-81.981264253157804,29.052290672283469],[-81.981292686249432,29.052288941159176],[-81.981321099163566,29.052290907578016],[-81.981336491868149,29.052290659786181],[-81.981351654931814,29.052288320470787],[-81.981366221753603,29.052283947327144],[-81.981379843181088,29.052277644069431],[-81.981455914114846,29.052231791597602],[-81.981535137700291,29.05219026686084],[-81.981617197640716,29.052153237634865],[-81.981701763268703,29.052120851843707],[-81.981788493652786,29.052093240267375],[-81.981877041705246,29.052070513835623],[-81.981501858787979,29.050770961560548],[-81.980886467766723,29.050769058182457],[-81.979412537869635,29.050764484082713]]]},"properties":{"PARCEL":"39393-000-15","ACRES":5.7199999999999998}},{"type":"Feature","geometry":{"type":"Polygon","coordinates":[[[-81.978919167383893,29.052140043207071],[-81.980892052918023,29.052829839828952],[-81.980932308520778,29.052749755390302],[-81.980978780221278,29.052672312798787],[-81.981031244084448,29.052597884658894],[-81.981089447428346,29.05252682732954],[-81.981095624754104,29.052517152126569],[-81.981099814213721,29.052506688049029],[-81.981101892527306,29.05249574636704],[-81.981101794943697,29.052484652795421],[-81.981099527564055,29.052473740277065],[-81.981099154446582,29.052447584872148],[-81.981103363145394,29.052421689969176],[-81.981112053938972,29.052396672714721],[-81.98112501929009,29.052373125877981],[-81.981141951035383,29.052351611536228],[-81.981162446550456,29.052332641225469],[-81.979412537869635,29.050764484082713],[-81.978926328279499,29.050762973129988],[-81.978922770828277,29.051447110935275],[-81.978919167383893,29.052140043207071]]]},"properties":{"PARCEL":"39393-000-16","ACRES":6.7000000000000002}},{"type":"Feature","geometry":{"type":"Polygon","coordinates":[[[-81.978918073110549,29.052350366793789],[-81.978913330539555,29.053261673585293],[-81.978912485137258,29.053424630984054],[-81.978908167259945,29.054256810288337],[-81.980776357428255,29.054260801830708],[-81.980787208456533,29.05416675764679],[-81.980790419562709,29.054072273858971],[-81.980789184294466,29.053440184617742],[-81.980788887026932,29.053287729604964],[-81.980793885753869,29.053193958863172],[-81.980806794342257,29.05310077392944],[-81.98082754182208,29.053008688189788],[-81.980856013069939,29.052918210511294],[-81.980892052918023,29.052829839828952],[-81.978919167383893,29.052140043207071],[-81.978918073110549,29.052350366793789]]]},"properties":{"PARCEL":"39393-000-17","ACRES":8.9800000000000004}},{"type":"Feature","geometry":{"type":"Polygon","coordinates":[[[-81.978904002015028,29.055060189583539],[-81.978903855608493,29.055088310072119],[-81.980319231699454,29.05508414350771],[-81.980320753726588,29.055056165779565],[-81.980327672960868,29.055028824048463],[-81.980339786949813,29.05500291590096],[-81.980356744350885,29.05497919739636],[-81.98037804904348,29.054958362315027],[-81.980403078618068,29.054941015995066],[-81.9804311028619,29.054927667214944],[-81.980461305327879,29.054918704737407],[-81.980469709532841,29.054917886688266],[-81.980477869551606,29.054915936239514],[-81.980485588212801,29.054912899378941],[-81.980492678608499,29.054908850968797],[-81.980498971284149,29.054903886626484],[-81.980504314237564,29.054898127235784],[-81.980508579081857,29.054891710827256],[-81.980511663099222,29.054884792578552],[-81.980627508651295,29.054679827170094],[-81.980669828165361,29.054599870351993],[-81.980706018569961,29.054517622647868],[-81.980735919615967,29.054433447659122],[-81.980759400834515,29.054347714404507],[-81.980776357428255,29.054260801830708],[-81.978908167259945,29.054256810288337],[-81.978904002015028,29.055060189583539]]]},"properties":{"PARCEL":"39393-000-19","ACRES":3.7200000000000002}},{"type":"Feature","geometry":{"type":"Polygon","coordinates":[[[-81.978896651605552,29.056477279444234],[-81.980496331716239,29.056483694750497],[-81.980503200104408,29.055241889187059],[-81.980472055000448,29.055239213005024],[-81.980442071229731,29.055231529321549],[-81.980413721971345,29.055220012074901],[-81.980387637690228,29.055204917606218],[-81.980364941931185,29.055185587415394],[-81.980346284499205,29.055163168399353],[-81.980332201307903,29.055138303965041],[-81.980323096814104,29.055111707877977],[-81.980319231699454,29.05508414350771],[-81.978903855608493,29.055088310072119],[-81.978896651605552,29.056477279444234]]]},"properties":{"PARCEL":"39393-000-20","ACRES":5.8899999999999997}},{"type":"Feature","geometry":{"type":"Polygon","coordinates":[[[-81.980496331716239,29.056483694750497],[-81.982039614535083,29.056489864211397],[-81.982099489522696,29.056434307003908],[-81.982121271154071,29.056416487138915],[-81.982139394427605,29.056395744293884],[-81.982153357090297,29.056372650449955],[-81.982162771891922,29.056347844372354],[-81.982180953045699,29.056312861721803],[-81.98220330307764,29.056279796969537],[-81.982229566221164,29.056249031744741],[-81.982491521665594,29.055603638866483],[-81.980737208828558,29.054856422197815],[-81.980679482559509,29.054960026524444],[-81.980675043914616,29.054973368827795],[-81.980673260714966,29.054987180699772],[-81.980674187462213,29.055001057023727],[-81.98067779548029,29.055014591768753],[-81.980687304815987,29.055040301849751],[-81.980691876681391,29.055067036212119],[-81.980691386954661,29.055094067599377],[-81.980685848091667,29.055120659751481],[-81.980675411175866,29.055146091766392],[-81.980660360781911,29.055169670731694],[-81.980641103675765,29.055190756084421],[-81.980618165731656,29.055208774047617],[-81.980592169337299,29.055223234770356],[-81.980563822095633,29.055233745860853],[-81.980533895258077,29.055240021406107],[-81.980503200104408,29.055241889187059],[-81.980496331716239,29.056483694750497]]]},"properties":{"PARCEL":"39393-000-21","ACRES":6.29}},{"type":"Feature","geometry":{"type":"Polygon","coordinates":[[[-81.987228662217404,29.052326204611049],[-81.984228284161986,29.052322670898814],[-81.985580264131798,29.053475785912052],[-81.987227462639666,29.053469745898482],[-81.987227541735123,29.053394519051089],[-81.987227545222481,29.053391217601757],[-81.987227917720489,29.053034887537294],[-81.987228294839781,29.05267436184285],[-81.987228371476462,29.05260241117243],[-81.987228439103944,29.052536907305768],[-81.987228513390662,29.052467359410823],[-81.987228583206686,29.052400759270288],[-81.987228648461368,29.052337843146443],[-81.987228662217404,29.052326204611049]]]},"properties":{"PARCEL":"39393-000-23","ACRES":7.1200000000000001}},{"type":"Feature","geometry":{"type":"Polygon","coordinates":[[[-81.984228284161986,29.052322670898814],[-81.987228662217404,29.052326204611049],[-81.987228722750302,29.052268274496981],[-81.987228789329166,29.052202942962822],[-81.987228863796517,29.052131924344561],[-81.987228934488058,29.052066548597661],[-81.987229008970033,29.051995409072155],[-81.987229082113629,29.051926797740371],[-81.987229157593561,29.051855891002266],[-81.987229240073731,29.051778171131463],[-81.987229309956902,29.051711016982861],[-81.987229381075863,29.051642165640914],[-81.987229452068377,29.051574340193092],[-81.987229533748305,29.051494776054106],[-81.987229596486685,29.051435604392708],[-81.987229672090706,29.051363683484244],[-81.987229743209312,29.051294830334161],[-81.987229817379472,29.051226211777042],[-81.985235159860139,29.051231674510746],[-81.984850587883429,29.050864101433117],[-81.984823624089529,29.050876751092979],[-81.98479475502009,29.050885575757111],[-81.98476467896559,29.050890363467122],[-81.984734120901066,29.050890998812559],[-81.984703821190024,29.050887465636322],[-81.984674509912281,29.05087984973872],[-81.984654469985983,29.050872654455794],[-81.984633351425913,29.050868470864678],[-81.984611736436037,29.050867413621486],[-81.984590219554946,29.050869512569534],[-81.984569395334248,29.050874709128795],[-81.984500027267572,29.050904755260404],[-81.984433765654245,29.050939796750864],[-81.984371073633525,29.050979589140063],[-81.984312392788581,29.051023851874756],[-81.984258132877201,29.051072274623003],[-81.984208674912168,29.051124518176799],[-81.984164368080641,29.051180215353643],[-81.984125520501649,29.051238976409071],[-81.984020373869669,29.051459612543223],[-81.983983478532096,29.051542516152036],[-81.983939809370781,29.051622838412669],[-81.983889597482161,29.051700152566823],[-81.983833110929623,29.05177404810118],[-81.98377064960934,29.051844131649176],[-81.983763322375381,29.051854556633661],[-81.983758068220723,29.051865906707707],[-81.983755034036164,29.051877865188246],[-81.983754304076555,29.051890101850429],[-81.98375589893358,29.051902273829487],[-81.983759773479122,29.051914043666411],[-81.983765819944949,29.05192508472183],[-81.983773869975039,29.051935089296887],[-81.984228284161986,29.052322670898814]]]},"properties":{"PARCEL":"39393-000-24","ACRES":10.23}},{"type":"Feature","geometry":{"type":"Polygon","coordinates":[[[-81.984850587883429,29.050864101433117],[-81.985235159860139,29.051231674510746],[-81.987229817379472,29.051226211777042],[-81.987229883942049,29.051160999334002],[-81.987229954900087,29.051093447272812],[-81.987230025891577,29.051025622721742],[-81.987230097009842,29.050956767763637],[-81.987230171469605,29.050885793344023],[-81.98723024809064,29.050813944612305],[-81.987230316649331,29.050749194133989],[-81.987230384335589,29.050683189482541],[-81.987230462089428,29.050610477264609],[-81.987230528719721,29.050544707205091],[-81.987230607819427,29.050469402728606],[-81.985307730954304,29.05046781750281],[-81.985261429165405,29.050521002874998],[-81.985210495712877,29.050570814087177],[-81.985155249988594,29.050616938979733],[-81.985096036027187,29.050659091562128],[-81.985033221479668,29.050697007501441],[-81.984967199666002,29.050730452243322],[-81.984956834810063,29.050736618182157],[-81.984947677330979,29.050744116926506],[-81.984939947000171,29.050752767142502],[-81.98493382970706,29.050762362228561],[-81.984929471297491,29.050772673021623],[-81.984926975519627,29.050783450503559],[-81.984913448477954,29.050807276455402],[-81.984895916005385,29.050828993321588],[-81.984874795075726,29.050848085944413],[-81.984850587883429,29.050864101433117]]]},"properties":{"PARCEL":"39393-000-25","ACRES":4.4100000000000001}},{"type":"Feature","geometry":{"type":"Polygon","coordinates":[[[-81.985307730954304,29.05046781750281],[-81.987230607819427,29.050469402728606],[-81.987230674159136,29.050405990331491],[-81.987230748609733,29.05033508267493],[-81.987230818549804,29.050267447595402],[-81.987230887239789,29.050201624298051],[-81.987230961622018,29.050131268836203],[-81.987231032602494,29.050063520969349],[-81.987231098900125,29.050000445119728],[-81.987231174720449,29.049926747601813],[-81.987231244510951,29.049860321576581],[-81.987231315571009,29.049791924063701],[-81.987231389790409,29.049722885027588],[-81.987231415422741,29.04969818324351],[-81.985424675775818,29.049703471643458],[-81.985448208273681,29.049773142129457],[-81.985464971679605,29.049844307862411],[-81.985474844884479,29.049916461748932],[-81.985477757094117,29.049989091286513],[-81.985473689883435,29.05006167766113],[-81.985462670008147,29.050133703867296],[-81.985444776592686,29.050204657415499],[-81.985420137023183,29.050274031234128],[-81.985388927973588,29.050341332692597],[-81.985351370272085,29.050406081796279],[-81.985307730954304,29.05046781750281]]]},"properties":{"PARCEL":"39393-000-26","ACRES":3.6699999999999999}},{"type":"Feature","geometry":{"type":"Polygon","coordinates":[[[-81.987231742709881,29.049383534820642],[-81.987231814913741,29.04931418088356],[-81.98723188936313,29.049243267801803],[-81.987231960491471,29.049174307258316],[-81.987232023520633,29.04911274723468],[-81.987232093086988,29.049048131180122],[-81.987232171035146,29.048973817392959],[-81.987232183809681,29.048961802599795],[-81.985192547987126,29.048949533283523],[-81.985424675775818,29.049703471643458],[-81.987231415422741,29.04969818324351],[-81.987231457599933,29.049655866200567],[-81.987231527502473,29.049588527062824],[-81.987231601911105,29.049517948730763],[-81.987231672839357,29.049450616809956],[-81.987231742709881,29.049383534820642]]]},"properties":{"PARCEL":"39393-000-27","ACRES":3.8199999999999998}},{"type":"Feature","geometry":{"type":"Polygon","coordinates":[[[-81.987232812527196,29.048358928112346],[-81.987232880017814,29.048294481679495],[-81.987232937005501,29.048240280664434],[-81.987232984685747,29.048194955402465],[-81.984959356711599,29.048195544693851],[-81.985192547987126,29.048949533283523],[-81.987232183809681,29.048961802599795],[-81.98723223844641,29.048910023316267],[-81.987232303864786,29.048845734787971],[-81.987232381912008,29.048770613455677],[-81.987232451620031,29.048704842476145],[-81.98723252394862,29.048634466245861],[-81.987232601812849,29.048560828263771],[-81.9872326764295,29.048488546411356],[-81.987232743953328,29.048423832001781],[-81.987232812527196,29.048358928112346]]]},"properties":{"PARCEL":"39393-000-28","ACRES":4.3700000000000001}},{"type":"Feature","geometry":{"type":"Polygon","coordinates":[[[-81.984771252847224,29.047443565607946],[-81.98477465539645,29.047522618593799],[-81.984784344174258,29.04760126897061],[-81.984800272017878,29.047679130554702],[-81.98482236095866,29.047755822571816],[-81.984959356711599,29.048195544693851],[-81.987232984685747,29.048194955402465],[-81.987233093149769,29.048089614814863],[-81.98723321309302,29.047974435736357],[-81.987233408451033,29.047788819964126],[-81.987233436393538,29.04776202487724],[-81.98719224975126,29.047761885613188],[-81.986763944000572,29.047760439228522],[-81.986764314014678,29.047443876076493],[-81.984771252847224,29.047443565607946]]]},"properties":{"PARCEL":"39393-000-29","ACRES":4.4199999999999999}},{"type":"Feature","geometry":{"type":"Polygon","coordinates":[[[-81.984771252847224,29.047443565607946],[-81.986764314014678,29.047443876076493],[-81.986764835137208,29.046997259686012],[-81.98517642742344,29.046517174924777],[-81.985173087260563,29.046516944473915],[-81.985169752158455,29.046517226520212],[-81.985166523771852,29.046518012954351],[-81.985163498624019,29.046519278523043],[-81.985160769132577,29.046520986242953],[-81.985158417449455,29.046523083790749],[-81.985156515460091,29.046525507112346],[-81.985155120675941,29.046528184031452],[-81.985121269603269,29.046616831381336],[-81.984994661481835,29.046850278468821],[-81.984937014464592,29.046828799488704],[-81.984845971496895,29.047060844656219],[-81.984819046890649,29.047135205958522],[-81.984798027225921,29.047211022403015],[-81.984783011141701,29.047287933090448],[-81.984774072635361,29.047365570802121],[-81.984771252847224,29.047443565607946]]]},"properties":{"PARCEL":"39393-000-30","ACRES":3.54}},{"type":"Feature","geometry":{"type":"Polygon","coordinates":[[[-81.980737208828558,29.054856422197815],[-81.982491521665594,29.055603638866483],[-81.98254744910183,29.05548971775033],[-81.982608341107493,29.05537777956485],[-81.982674107275656,29.055267991213878],[-81.982744651040065,29.055160515990917],[-81.982860651303611,29.055063254954458],[-81.982913558517836,29.055002045491754],[-81.982971383882628,29.054944374478108],[-81.980978393966936,29.054072300619087],[-81.980978681709601,29.054160666534045],[-81.980972215687828,29.054248850132307],[-81.980959024710259,29.0543364535107],[-81.980939168392055,29.054423080573997],[-81.980912737154839,29.05450834064418],[-81.980879850173068,29.054591848459999],[-81.98084065537391,29.054673227786399],[-81.98079532943737,29.054752111414523],[-81.980737208828558,29.054856422197815]]]},"properties":{"PARCEL":"39393-000-31","ACRES":4.2199999999999998}},{"type":"Feature","geometry":{"type":"Polygon","coordinates":[[[-81.981420734361777,29.052561255935437],[-81.981397967456772,29.052580042807083],[-81.981372040479542,29.052595343720959],[-81.98134363636926,29.052606754547732],[-81.98131350479396,29.052613974930313],[-81.981293130600946,29.052614875277815],[-81.981273159468117,29.052618529443205],[-81.981254069928966,29.052624849972165],[-81.981236321018386,29.052633685345754],[-81.981220336869399,29.052644822685309],[-81.981169138288948,29.052707549380425],[-81.981123526237084,29.05277352144698],[-81.981083767775672,29.052842355458381],[-81.981050093004725,29.05291365083902],[-81.981022698142141,29.052986993473613],[-81.981001742442601,29.05306195660917],[-81.980987348196436,29.053138105366052],[-81.980979597648698,29.05321499583523],[-81.980978537105187,29.053292181394866],[-81.980978393966936,29.054072300619087],[-81.982971383882628,29.054944374478108],[-81.983028159281119,29.05490810272234],[-81.983089177822677,29.054877612395948],[-81.983153684689356,29.054853286868237],[-81.983220873735192,29.054835426493408],[-81.9832899080224,29.054824254929144],[-81.98335993009087,29.054819911017812],[-81.983430065037936,29.05482244878678],[-81.983438043306606,29.054826474849985],[-81.983446654327224,29.054829318099337],[-81.983455675276701,29.054830905422438],[-81.983464871004628,29.054831192578483],[-81.983473997112426,29.054830174123627],[-81.983502247078604,29.054828270173935],[-81.983530513925146,29.054829989783912],[-81.983558194877588,29.054835299495235],[-81.983584707711941,29.054844083745092],[-81.98360451220563,29.054850911023884],[-81.983625115962766,29.054855570214237],[-81.983646210927475,29.054857988193358],[-81.983671408122348,29.054861585950341],[-81.983695749424413,29.054868346096171],[-81.983718722441026,29.054878126910982],[-81.983739844569001,29.054890722616758],[-81.983758672235268,29.054905867889868],[-81.983780333661812,29.054923927872636],[-81.983805173862066,29.054938484675354],[-81.983832474079406,29.054949113234962],[-81.983977174015394,29.054596432249618],[-81.98411728417517,29.054254928916311],[-81.984244849555651,29.053944013107852],[-81.98175635875333,29.052859639702259],[-81.981420734361777,29.052561255935437]]]},"properties":{"PARCEL":"39393-000-33","ACRES":11.779999999999999}},{"type":"Feature","geometry":{"type":"Polygon","coordinates":[[[-81.981420734361777,29.052561255935437],[-81.98175635875333,29.052859639702259],[-81.984244849555651,29.053944013107852],[-81.982603033217387,29.052201217896531],[-81.982249225953382,29.052196652963879],[-81.982151237997201,29.052201151385542],[-81.982053837396052,29.052211587732689],[-81.981957491364128,29.052227911541522],[-81.981862657879063,29.052250046182174],[-81.981769791844386,29.052277885250241],[-81.981679336874535,29.052311294370234],[-81.981591725294393,29.052350115706854],[-81.981507375059763,29.052394163452984],[-81.981486337333308,29.052419324298778],[-81.981470442661944,29.052447246834081],[-81.981468451230512,29.052472145935084],[-81.981462307255129,29.052496514823183],[-81.981452145347049,29.052519822974578],[-81.981438186370866,29.052541561531836],[-81.981420734361777,29.052561255935437]]]},"properties":{"PARCEL":"39393-000-34","ACRES":4.4299999999999997}},{"type":"Feature","geometry":{"type":"Polygon","coordinates":[[[-81.982603033217387,29.052201217896531],[-81.984244846474994,29.053944013107483],[-81.984663267469472,29.052924150918212],[-81.983621819085215,29.052031710667745],[-81.983611382205311,29.052024464971172],[-81.983599746731585,29.052018803534839],[-81.98358721864399,29.052014876174621],[-81.983574132681511,29.052012787595963],[-81.98356083385957,29.052012591977899],[-81.983547674389115,29.052014295679456],[-81.983535004435737,29.052017852727246],[-81.983523159796533,29.052023170227557],[-81.983444445347999,29.052065209599803],[-81.98336241080824,29.052102026105455],[-81.983277507010271,29.052133418585694],[-81.98319019607986,29.052159215659422],[-81.983100955542724,29.052179275723844],[-81.983010272162375,29.052193490562857],[-81.982918640913653,29.052201780835759],[-81.982826563954532,29.052204101490741],[-81.982603033217387,29.052201217896531]]]},"properties":{"PARCEL":"39393-000-35","ACRES":4.5700000000000003}},{"type":"Feature","geometry":{"type":"Polygon","coordinates":[[[-81.98411728417517,29.054254928916311],[-81.985785759330852,29.054259807769686],[-81.985789896541334,29.054170601406891],[-81.985784427706051,29.054100793988272],[-81.985771033310741,29.054031817632968],[-81.985749847796612,29.053964366207683],[-81.985721084675291,29.053899116442853],[-81.985685031394183,29.053836725225551],[-81.985642051391068,29.053777818772517],[-81.985592522477319,29.053723019692182],[-81.985537001150874,29.053672852263166],[-81.984663267469472,29.052924150918212],[-81.984244846474994,29.053944013107483],[-81.98411728417517,29.054254928916311]]]},"properties":{"PARCEL":"39393-000-36","ACRES":3.4900000000000002}},{"type":"Feature","geometry":{"type":"Polygon","coordinates":[[[-81.984500199904943,29.055361461629435],[-81.985648834168288,29.055363360488002],[-81.98571340286793,29.054515650219606],[-81.985701072462689,29.054490290277151],[-81.985693726755883,29.054463479995558],[-81.985691569990394,29.054435968291195],[-81.985694664695615,29.054408525719708],[-81.9857029214227,29.054381920112995],[-81.985716111070431,29.054356896730514],[-81.985733862835161,29.054334154799903],[-81.985755681670312,29.054314332180052],[-81.985764675022978,29.054307433384679],[-81.985772295594685,29.054299359672303],[-81.985778347222634,29.05429031854721],[-81.985782674816036,29.054280542781886],[-81.985785167437513,29.054270284101367],[-81.985785759330852,29.054259807769686],[-81.98411728417517,29.054254928916311],[-81.983977174015394,29.054596432249618],[-81.983832474079406,29.054949113234962],[-81.983879310172952,29.054970719490889],[-81.983922863609223,29.054997101114591],[-81.983962505994711,29.055027876368978],[-81.984001173232386,29.055062885001181],[-81.984045089723082,29.055092737705912],[-81.984068098467986,29.055111123525581],[-81.984089015164102,29.055131346138939],[-81.984174314127301,29.055176196913536],[-81.984262260090688,29.055216908275479],[-81.984352596342447,29.055253358381758],[-81.984395458834598,29.055273485153908],[-81.984434817876846,29.05529853435516],[-81.984469947529206,29.055328041229426],[-81.984500199904943,29.055361461629435]]]},"properties":{"PARCEL":"39393-000-37","ACRES":4.8499999999999996}},{"type":"Feature","geometry":{"type":"Polygon","coordinates":[[[-81.985871579336703,29.054603141371146],[-81.985770679259815,29.055900490892586],[-81.985789658192829,29.055894384456021],[-81.985809444951684,29.055890763887991],[-81.985829621579938,29.055889705837945],[-81.985849759859576,29.05589123371993],[-81.985866270169808,29.05589232721962],[-81.985882784878839,29.055891285017161],[-81.98589894867591,29.055888130534544],[-81.985914412405592,29.055882932308709],[-81.985928843337376,29.055875800383358],[-81.985941215846296,29.055872492110399],[-81.985954009160537,29.055870820619191],[-81.985966942932876,29.05587082197157],[-81.985979733740209,29.055872496137852],[-81.985992107406446,29.055875806998269],[-81.986008096755768,29.055879293277009],[-81.986024488926844,29.055880726002805],[-81.986040948126998,29.055880077169892],[-81.986057128289147,29.05587735937425],[-81.986107723921521,29.055859085295324],[-81.986155929513529,29.055836364507076],[-81.986201238768842,29.055809434260052],[-81.986229801278554,29.055775479823325],[-81.986252235702423,29.055738141196873],[-81.986268032592463,29.055698265574151],[-81.986274927428553,29.055649777663636],[-81.986289135637648,29.055602534745827],[-81.986294642747112,29.055587960752529],[-81.986302787816257,29.055574375026477],[-81.986313350014328,29.055562138457432],[-81.986326044847317,29.055551583957705],[-81.986343160064393,29.055544008338213],[-81.98635861613154,29.055534051426648],[-81.986371986851111,29.055521987473991],[-81.986382907631992,29.055508149385815],[-81.986391073437588,29.055492915187763],[-81.986397134826419,29.055472214753625],[-81.986406577640821,29.055452516194208],[-81.986419198498837,29.055434243560597],[-81.986441443440782,29.055415601060108],[-81.986466179276519,29.055399561889612],[-81.986493012673506,29.055386382256216],[-81.986528181764442,29.055370011181409],[-81.986561118803394,29.055350378125667],[-81.986591433539317,29.05532771674261],[-81.986599838116945,29.055323899125522],[-81.986607400794952,29.05531890214175],[-81.986613908988275,29.055312867428505],[-81.986619179888393,29.055305963694362],[-81.986623067651919,29.055298384013238],[-81.986629600855721,29.05528950170066],[-81.986637759484765,29.055281728453739],[-81.986647307324816,29.055275289819093],[-81.986657964010362,29.055270374345426],[-81.986669419401764,29.055267128171373],[-81.986681334613593,29.055265642393522],[-81.986693364604918,29.055265963896254],[-81.986733676985608,29.055260242005552],[-81.986772448704045,29.055248987159558],[-81.986776300408948,29.055250273290376],[-81.986780342164096,29.055250969347544],[-81.986784458959875,29.055251057274109],[-81.986788534758091,29.055250532547255],[-81.986792451464112,29.055249411396424],[-81.986796097142602,29.055247726292755],[-81.986799368071416,29.055245525047024],[-81.986802167714714,29.055242870809455],[-81.986804416992229,29.055239839363985],[-81.986806054279512,29.055236517323699],[-81.986807028219758,29.055233001227577],[-81.986807314155016,29.055229390324275],[-81.98680690385693,29.055225789277696],[-81.986805806554429,29.055222300948802],[-81.9868040571492,29.055219025494321],[-81.986801702866501,29.055216054951543],[-81.986798811469939,29.055213477750776],[-81.986787475431115,29.055182744920817],[-81.98677246091961,29.05515325416939],[-81.986765054450501,29.055141369487121],[-81.986755537567774,29.05513070809025],[-81.986744165930773,29.055121556026929],[-81.986731243467105,29.055114161454171],[-81.986717119293928,29.055108720201222],[-81.98670217539464,29.055105380279731],[-81.98669456634758,29.055103772562216],[-81.986687336354322,29.055101142596648],[-81.986680662031944,29.055097554462638],[-81.986674705617915,29.055093094795382],[-81.986669612916515,29.05508787368786],[-81.986665511245519,29.055082019276782],[-81.986662497114096,29.05507567413235],[-81.986660646492012,29.055068993454618],[-81.986660003514189,29.055062140561034],[-81.986656495030672,29.055011185656358],[-81.986587979818339,29.054853682845145],[-81.986688165186251,29.054716268084064],[-81.986699841081332,29.054706690617806],[-81.986713016016978,29.054698755451671],[-81.986727391147042,29.054692639402926],[-81.986742646066261,29.054688479586392],[-81.986818900521257,29.054656340598374],[-81.986892028720234,29.054619012239169],[-81.986969356927617,29.054572694814077],[-81.986978972394823,29.054566744296157],[-81.986989533445012,29.054562199624186],[-81.987000780262534,29.05455917446033],[-81.987012426337742,29.05455774276378],[-81.987024186192528,29.054557943304996],[-81.987035762031908,29.054559767934634],[-81.987046865307505,29.054563172413133],[-81.987057220825264,29.054568071899538],[-81.986914369471933,29.054441290168011],[-81.986066750498864,29.054439676424099],[-81.986064117114822,29.0544659812746],[-81.986056738594868,29.054491579145626],[-81.986044801916876,29.054515813194712],[-81.986028614200464,29.054538060878173],[-81.986008592435653,29.054557752898113],[-81.98598524807872,29.054574383126152],[-81.985959180888671,29.054587523941724],[-81.985931060441516,29.054596839764585],[-81.985901607645602,29.054602090662229],[-81.985871579336703,29.054603141371146]]]},"properties":{"PARCEL":"39393-000-38","ACRES":2.3700000000000001}},{"type":"Feature","geometry":{"type":"Polygon","coordinates":[[[-81.985155120675941,29.046528184031452],[-81.985156515460091,29.046525507112346],[-81.985158417449455,29.046523083790749],[-81.985160769132577,29.046520986242953],[-81.985163498624019,29.046519278523043],[-81.985166523771852,29.046518012954351],[-81.985169752158455,29.046517226520212],[-81.985173087260563,29.046516944473915],[-81.98517642742344,29.046517174924777],[-81.986764835137208,29.046997259686012],[-81.98676489903923,29.046939064255362],[-81.985195233396539,29.046466518327218],[-81.98518212968736,29.046463953496385],[-81.985168723823023,29.046463314102596],[-81.985155381342636,29.046464617329512],[-81.985142462658629,29.046467828930268],[-81.985130319976889,29.046472860520243],[-81.985119281893844,29.046479575891379],[-81.985109648262238,29.046487792816034],[-81.985101681976047,29.046497287557507],[-81.985095596647682,29.046507803891473],[-81.985061119809529,29.046599204924281],[-81.984937014464592,29.046828799488704],[-81.984994661481835,29.046850278468821],[-81.985121269603269,29.046616831381336],[-81.985155120675941,29.046528184031452]]]},"properties":{"PARCEL":"39393-002-00","ACRES":0.31}},{"type":"Feature","geometry":{"type":"Polygon","coordinates":[[[-81.983087980957905,29.045884879892636],[-81.984791468966804,29.046398964405054],[-81.984793867439535,29.046399921998773],[-81.984796048179675,29.046401222435321],[-81.98479794753095,29.046402827811594],[-81.984799510052909,29.046404691202607],[-81.984800692627303,29.046406761173387],[-81.984801460351761,29.046408976364773],[-81.984801790645861,29.04641127361436],[-81.984801674278003,29.046413587054509],[-81.984801115365116,29.046415849916723],[-81.984800129318785,29.046417997238382],[-81.984765462745813,29.046506304247039],[-81.984699578992405,29.046762856375437],[-81.984757624551875,29.046775806223248],[-81.984825238670098,29.046516970584417],[-81.984859039515328,29.046436276925824],[-81.984862483016713,29.046424941934184],[-81.984863634742979,29.046413253891508],[-81.984862460758634,29.046401567391253],[-81.984858995924043,29.046390237034462],[-81.984853345950228,29.046379607504925],[-81.98484568123996,29.046370001838905],[-81.984836235862289,29.046361709695262],[-81.984825295231374,29.046354985549673],[-81.984813193028373,29.04635003155088],[-81.983088101479197,29.04582584714316],[-81.983087980957905,29.045884879892636]]]},"properties":{"PARCEL":"39393-003-00","ACRES":0.33000000000000002}},{"type":"Feature","geometry":{"type":"Polygon","coordinates":[[[-81.987057220825264,29.054568071899538],[-81.987072223600777,29.054568125677172],[-81.987087072585396,29.05456623863018],[-81.987101443277652,29.054562452232446],[-81.987115022466838,29.054556848561656],[-81.98712751644841,29.054549549397994],[-81.987226378511735,29.054501130668125],[-81.987226640366501,29.054251112912485],[-81.987226736980759,29.054158727381637],[-81.985976443326763,29.054166267509096],[-81.985975608040334,29.054260553167119],[-81.985976408483751,29.05427201854593],[-81.9859793376895,29.054283214364755],[-81.985984316629541,29.054293835643946],[-81.985991210821552,29.054303596345903],[-81.98599983238239,29.054312231179889],[-81.986019518518631,29.054329072516669],[-81.98603619455325,29.054348260372564],[-81.986049501132229,29.05436938327076],[-81.986059152841946,29.054391986432677],[-81.986064944368891,29.054415586214656],[-81.986066750498864,29.054439676424099],[-81.986914369471933,29.054441290168011],[-81.987057220825264,29.054568071899538]]]},"properties":{"PARCEL":"39393-004-00","ACRES":0.96999999999999997}},{"type":"Feature","geometry":{"type":"Polygon","coordinates":[[[-81.985143643304497,29.055950041248902],[-81.985197866060062,29.055953880129646],[-81.985252253804362,29.0559529324027],[-81.985264617265102,29.055948476488947],[-81.98527761304949,29.055945742196709],[-81.985290933079654,29.05594479355404],[-81.985304259014072,29.055945656692124],[-81.985317277652769,29.055948309019715],[-81.985328976678716,29.055951309482548],[-81.985341062045904,29.055952705729847],[-81.98535324622766,29.055952459834337],[-81.985365246825054,29.055950581690279],[-81.985376778353697,29.055947114576163],[-81.985387571754515,29.055942138765896],[-81.985396554686801,29.055937491188374],[-81.985406242918359,29.055934114099387],[-81.985416410520855,29.055932085972753],[-81.985426811031786,29.055931459113992],[-81.985437196967524,29.055932245225836],[-81.985447320848579,29.055934426235815],[-81.985467534193447,29.055935250403625],[-81.985487628824373,29.055933175524743],[-81.985507073825801,29.055928255678847],[-81.985594233738581,29.055914228263404],[-81.985682213461516,29.055904961316543],[-81.985770679259815,29.055900490892586],[-81.985871579336703,29.054603141371146],[-81.985839274036493,29.054599508088469],[-81.985808171885125,29.054591020649184],[-81.985779208343345,29.05457793540122],[-81.985753256211865,29.054560645833366],[-81.985731098933158,29.054539673549488],[-81.98571340286793,29.054515650219606],[-81.985648834168288,29.055363360488002],[-81.984500199904943,29.055361461629435],[-81.984541533603775,29.055407951044167],[-81.984581022857697,29.055455661923464],[-81.984611980958036,29.055522487552643],[-81.984647752431755,29.055587432467224],[-81.984688189452584,29.055650228668899],[-81.984702540278391,29.0556922143716],[-81.984723324933498,29.055732068713173],[-81.984729867704658,29.055743181957954],[-81.984738352494702,29.055753230730858],[-81.984748559586208,29.055761956051697],[-81.98476022510016,29.055769131417438],[-81.984809426140842,29.055801564092018],[-81.984814777180475,29.055809386576669],[-81.984821339041702,29.055816462108815],[-81.98482897824924,29.055822645405811],[-81.984837539759496,29.05582781464199],[-81.984879322441543,29.055860965571203],[-81.984924565308916,29.055890399475594],[-81.984972842236644,29.055915843814926],[-81.984974477607864,29.05591913461895],[-81.98497671889055,29.055922138565208],[-81.984979505510367,29.055924768125571],[-81.984982754299779,29.055926946596745],[-81.984986373873312,29.055928615320234],[-81.984990260521172,29.055929726463411],[-81.984994306423829,29.05593024662981],[-81.98499839143642,29.055930160467241],[-81.985002404653329,29.05592947157243],[-81.98500622695137,29.055928200684537],[-81.985009241207592,29.055926051786297],[-81.985012625077545,29.055924382943086],[-81.985016280998778,29.055923243769438],[-81.985020105250186,29.055922664931359],[-81.985023986924148,29.055922665364349],[-81.98502781100818,29.055923245055624],[-81.985031467626982,29.055924385044968],[-81.985034851014547,29.055926054643063],[-81.985037861569012,29.05592820421337],[-81.985090129795566,29.055941454619241],[-81.985143643304497,29.055950041248902]]]},"properties":{"PARCEL":"39393-005-00","ACRES":2}}]}