{"type":"FeatureCollection","features":[{"type":"Feature","geometry":{"type":"Polygon","coordinates":[[[-81.98578944498567,29.055669622188596],[-81.985357811666205,29.055706788376973],[-81.985106554211882,29.055691753075347],[-81.984959258880608,29.055594875286683],[-81.984932897064311,29.0555485946361],[-81.984856145250802,29.055587648647919],[-81.984867775293424,29.055604606109924],[-81.984903451055189,29.055646111878428],[-81.984943986494841,29.055682886420303],[-81.984988759119702,29.055714364998089],[-81.985037081367764,29.055740064203118],[-81.985088211166314,29.055759589379104],[-81.985141363327784,29.055772640682797],[-81.985195721607695,29.055779017688572],[-81.985250451239494,29.055778622466359],[-81.985300362599091,29.055777945431622],[-81.985503873524976,29.05576835312349],[-81.985514197600068,29.055930200882631],[-81.985653850937425,29.055908419093473],[-81.985644510293227,29.055761970686167],[-81.985730663574401,29.055754829041376],[-81.985783962087368,29.055747818587754],[-81.98578944498567,29.055669622188596]]]},"properties":{"ORB":"5094","PAGE":456,"EXHIBIT":"Exhibit B","DEED_ACRES":0.25,"STATUS":"Active","DT_RECD":1221004800000,"PRMT_NO":"102651-1"}},{"type":"Feature","geometry":{"type":"Polygon","coordinates":[[[-81.984230048955993,29.052324788686843],[-81.984980626616093,29.052320843700372],[-81.984965310900847,29.052293416731967],[-81.98419768731317,29.052297467331925],[-81.984230048955993,29.052324788686843]]]},"properties":{"ORB":"8469","PAGE":1461,"EXHIBIT":"Exhibit A","DEED_ACRES":0.059999999999999998,"STATUS":"Active","DT_RECD":1731542400000,"PRMT_NO":"102651-1"}},{"type":"Feature","geometry":{"type":"Polygon","coordinates":[[[-81.984876434027868,29.055369630012823],[-81.984793747646748,29.055224471653119],[-81.984573760233729,29.055028688625654],[-81.9842779699961,29.054886743891277],[-81.984335886216684,29.054656304307859],[-81.984231868832893,29.054724366277647],[-81.983975266810333,29.05478845914908],[-81.984545220373732,29.055061971497835],[-81.984755110485722,29.055248773068069],[-81.984824109149983,29.055369905224431],[-81.984876434027868,29.055369630012823]]]},"properties":{"ORB":"5094","PAGE":456,"EXHIBIT":"Exhibit B","DEED_ACRES":0.19,"STATUS":"Active","DT_RECD":1221004800000,"PRMT_NO":"102651-1"}},{"type":"Feature","geometry":{"type":"Polygon","coordinates":[[[-81.983262004339494,29.054560679167786],[-81.983327325178664,29.054824353592604],[-81.983352539490838,29.054822681196235],[-81.983286847911174,29.054557542404325],[-81.983262004339494,29.054560679167786]]]},"properties":{"ORB":"5094","PAGE":456,"EXHIBIT":"Exhibit B","DEED_ACRES":0.02,"STATUS":"Active","DT_RECD":1221004800000,"PRMT_NO":"102651-1"}},{"type":"Feature","geometry":{"type":"Polygon","coordinates":[[[-81.982638833975628,29.054800113037025],[-81.982682766540435,29.054819013601989],[-81.982873127602502,29.054690395313489],[-81.983102756087476,29.054602805780746],[-81.983325824700316,29.054574639341197],[-81.983484348845494,29.054590955472474],[-81.983376502945418,29.054382860992792],[-81.983290350493746,29.054537464153618],[-81.983089827885479,29.054562777373953],[-81.982849110275424,29.054654589480339],[-81.982646387723733,29.054791549420528],[-81.982638833975628,29.054800113037025]]]},"properties":{"ORB":"5094","PAGE":456,"EXHIBIT":"Exhibit B","DEED_ACRES":0.13,"STATUS":"Active","DT_RECD":1221004800000,"PRMT_NO":"102651-1"}},{"type":"Feature","geometry":{"type":"Polygon","coordinates":[[[-81.982379206465183,29.055173685969613],[-81.982638234112471,29.055331899041345],[-81.98265082536777,29.055312789640016],[-81.982390998217141,29.055154092951607],[-81.982379206465183,29.055173685969613]]]},"properties":{"ORB":"5094","PAGE":456,"EXHIBIT":"Exhibit B","DEED_ACRES":0.02,"STATUS":"Active","DT_RECD":1221004800000,"PRMT_NO":"102651-1"}},{"type":"Feature","geometry":{"type":"Polygon","coordinates":[[[-81.982172113777082,29.055470070878481],[-81.982175072867904,29.055468081645053],[-81.982217429659968,29.055486305023845],[-81.982226215322783,29.055465881529678],[-81.982466944789223,29.055065842837603],[-81.982683834673082,29.054819933890396],[-81.982639877033932,29.054800699390995],[-81.982424373042093,29.05504539915162],[-81.982180368137094,29.055450881874393],[-81.982172113777082,29.055470070878481]]]},"properties":{"ORB":"5094","PAGE":456,"EXHIBIT":"Exhibit B","DEED_ACRES":0.10000000000000001,"STATUS":"Active","DT_RECD":1221004800000,"PRMT_NO":"102651-1"}},{"type":"Feature","geometry":{"type":"Polygon","coordinates":[[[-81.985790812432569,29.055669267030012],[-81.985785331073913,29.055747460667959],[-81.985831692313695,29.055736749407068],[-81.985876873078965,29.055721823117686],[-81.985892688895589,29.055714444574544],[-81.985907245837424,29.055704817612479],[-81.985920226551457,29.055693152107011],[-81.985931348047657,29.055679702375539],[-81.985940367868466,29.055664761633025],[-81.985959821122506,29.055626800176025],[-81.985883794724842,29.055599445185248],[-81.985882138975157,29.05560321651657],[-81.98582628868138,29.055666212593017],[-81.985790812432569,29.055669267030012]]]},"properties":{"ORB":"5094","PAGE":456,"EXHIBIT":"Exhibit B","DEED_ACRES":0.040000000000000001,"STATUS":"Active","DT_RECD":1221004800000,"PRMT_NO":"102651-1"}},{"type":"Feature","geometry":{"type":"Polygon","coordinates":[[[-81.984304919239889,29.054881559292589],[-81.98428204004064,29.054870578754162],[-81.984201973825151,29.055189110156988],[-81.984224606285778,29.055201126495383],[-81.984304919239889,29.054881559292589]]]},"properties":{"ORB":"5094","PAGE":456,"EXHIBIT":"Exhibit B","DEED_ACRES":0.02,"STATUS":"Active","DT_RECD":1221004800000,"PRMT_NO":"102651-1"}},{"type":"Feature","geometry":{"type":"Polygon","coordinates":[[[-81.981980970336281,29.055948111555832],[-81.982296118247845,29.056092050907388],[-81.982304397497003,29.05607102750173],[-81.981989887747517,29.055927380494577],[-81.981980970336281,29.055948111555832]]]},"properties":{"ORB":"5094","PAGE":456,"EXHIBIT":"Exhibit B","DEED_ACRES":0.02,"STATUS":"Active","DT_RECD":1221004800000,"PRMT_NO":"102651-1"}},{"type":"Feature","geometry":{"type":"Polygon","coordinates":[[[-81.981887486018223,29.056318093647885],[-81.981892517429728,29.056306399833556],[-81.982014645132779,29.055956564694242],[-81.982217536739682,29.055484889393732],[-81.982175178383471,29.055466666026405],[-81.981969771480948,29.055943090944481],[-81.981967271122983,29.055948904741616],[-81.981838351317478,29.05631819312449],[-81.981887486018223,29.056318093647885]]]},"properties":{"ORB":"5094","PAGE":456,"EXHIBIT":"Exhibit B","DEED_ACRES":0.11,"STATUS":"Active","DT_RECD":1221004800000,"PRMT_NO":"102651-1"}}]}