{"type":"FeatureCollection","features":[{"type":"Feature","geometry":{"type":"LineString","coordinates":[[-81.989226102818577,29.048112300544247],[-81.989228915278431,29.047608159334995],[-81.989228525340963,29.047526647983478]]},"properties":{"STREET":"SE 98TH TER","SUB_NAME":"SMITH LAKE VILLAGE","SEGMENT_ID":2441}},{"type":"Feature","geometry":{"type":"LineString","coordinates":[[-81.989228525340963,29.047526647983478],[-81.988564491171402,29.047324191209647]]},"properties":{"STREET":"E HWY 25","SUB_NAME":" ","SEGMENT_ID":27587}},{"type":"Feature","geometry":{"type":"LineString","coordinates":[[-81.981822266505745,29.045987395241408],[-81.981033572094034,29.045765496002797]]},"properties":{"STREET":"SE 121ST STREET RD","SUB_NAME":"LAKE WEIR HEIGHTS","SEGMENT_ID":2456}},{"type":"Feature","geometry":{"type":"LineString","coordinates":[[-81.981029802396179,29.044262917169373],[-81.980249003449757,29.044024229211693]]},"properties":{"STREET":"SE 123RD STREET RD","SUB_NAME":"LAKE WEIR HEIGHTS","SEGMENT_ID":2468}},{"type":"Feature","geometry":{"type":"LineString","coordinates":[[-81.980198018326135,29.047386968067649],[-81.979659833773226,29.047391450477189],[-81.979571024829468,29.047380288391402],[-81.97951012952845,29.04736021144377],[-81.979456075878218,29.047324721819052]]},"properties":{"STREET":"SE 120TH PL","SUB_NAME":"LAKE WEIR HEIGHTS","SEGMENT_ID":5789}},{"type":"Feature","geometry":{"type":"LineString","coordinates":[[-81.977724728850262,29.04325241187453],[-81.977734671429516,29.040677571715808]]},"properties":{"STREET":"SE 106TH AVE","SUB_NAME":"LAKE WEIR HEIGHTS","SEGMENT_ID":5842}},{"type":"Feature","geometry":{"type":"LineString","coordinates":[[-81.989226102818577,29.048112300544247],[-81.988440207483237,29.048110067912877]]},"properties":{"STREET":"SE 119TH LN","SUB_NAME":"SMITH LAKE VILLAGE","SEGMENT_ID":9048}},{"type":"Feature","geometry":{"type":"LineString","coordinates":[[-81.985339176351118,29.044321034116461],[-81.985323187087047,29.044329697897656],[-81.985307416648581,29.044337490095316],[-81.985285240230027,29.044344416299889],[-81.98526170466495,29.044349108298494],[-81.98523457368465,29.044351116507638],[-81.98441132458187,29.044350650833877]]},"properties":{"STREET":"SE 122ND ST","SUB_NAME":"LAKE WEIR HEIGHTS SECOND ADDITION REPLAT UNIT 3","SEGMENT_ID":37184}},{"type":"Feature","geometry":{"type":"LineString","coordinates":[[-81.983614025090475,29.044300040700044],[-81.983593589262455,29.044279116965392],[-81.983579455288435,29.044261631697101],[-81.983565845925924,29.044238165256299],[-81.983562709228679,29.044211479847522],[-81.983563147063578,29.044144007164739],[-81.98356178612525,29.043524964911779]]},"properties":{"STREET":"SE 102ND AVE","SUB_NAME":"LAKE WEIR HEIGHTS SECOND ADDITION REPLAT UNIT 3","SEGMENT_ID":37191}},{"type":"Feature","geometry":{"type":"LineString","coordinates":[[-81.986316105736975,29.043528887422248],[-81.985406017349561,29.04352938712158]]},"properties":{"STREET":"SE 122ND LN","SUB_NAME":"LAKE WEIR HEIGHTS SECOND ADDITION REPLAT UNIT 3","SEGMENT_ID":37198}},{"type":"Feature","geometry":{"type":"LineString","coordinates":[[-81.981029802396179,29.044262917169373],[-81.981033305204278,29.042823109977835]]},"properties":{"STREET":"SE 103RD TER","SUB_NAME":"LAKE WEIR HEIGHTS","SEGMENT_ID":15829}},{"type":"Feature","geometry":{"type":"LineString","coordinates":[[-81.987231493967215,29.046958940701941],[-81.985055835905115,29.046249812433153]]},"properties":{"STREET":"E HWY 25","SUB_NAME":" ","SEGMENT_ID":19071}},{"type":"Feature","geometry":{"type":"LineString","coordinates":[[-81.981850941394299,29.047398546923702],[-81.981025474356741,29.047378319143931]]},"properties":{"STREET":"SE 120TH PL","SUB_NAME":"LAKE WEIR HEIGHTS","SEGMENT_ID":2444}},{"type":"Feature","geometry":{"type":"LineString","coordinates":[[-81.988066716311806,29.043653771576185],[-81.987227091867297,29.043658954662174]]},"properties":{"STREET":"SE 122ND LN","SUB_NAME":"VICTORIA HEIGHTS","SEGMENT_ID":2470}},{"type":"Feature","geometry":{"type":"LineString","coordinates":[[-81.982541771044026,29.047387396966645],[-81.982480092675715,29.047391959898782],[-81.982374533601231,29.047395513712281],[-81.981850941394299,29.047398546923702]]},"properties":{"STREET":"SE 120TH PL","SUB_NAME":"LAKE WEIR HEIGHTS","SEGMENT_ID":9063}},{"type":"Feature","geometry":{"type":"LineString","coordinates":[[-81.979022554439794,29.045117089769697],[-81.979028949313005,29.044411186885366]]},"properties":{"STREET":"SE 105TH AVE","SUB_NAME":"LAKE WEIR HEIGHTS","SEGMENT_ID":9087}},{"type":"Feature","geometry":{"type":"LineString","coordinates":[[-81.978538182995848,29.043501090885453],[-81.977724728850262,29.04325241187453]]},"properties":{"STREET":"SE 123RD STREET RD","SUB_NAME":"LAKE WEIR HEIGHTS","SEGMENT_ID":9102}},{"type":"Feature","geometry":{"type":"LineString","coordinates":[[-81.982541771044026,29.047387396966645],[-81.982585654738656,29.047370567872765],[-81.982624229274649,29.047338465137486],[-81.982652657624286,29.047283171511499],[-81.982652669560423,29.047211820796402],[-81.982651629674891,29.046602549681218],[-81.982669428157138,29.046388498902925],[-81.982668169007596,29.046181340903377]]},"properties":{"STREET":"SE 102ND TER","SUB_NAME":"LAKE WEIR HEIGHTS","SEGMENT_ID":12431}},{"type":"Feature","geometry":{"type":"LineString","coordinates":[[-81.977878871756516,29.044057610549682],[-81.975239626286211,29.043253352702585],[-81.973083152649266,29.04258895475397],[-81.971561186509291,29.042122463768383],[-81.970654257902794,29.041841976128755]]},"properties":{"STREET":"E HWY 25","SUB_NAME":" ","SEGMENT_ID":12452}},{"type":"Feature","geometry":{"type":"LineString","coordinates":[[-81.990039722274219,29.051781746545938],[-81.989991713078282,29.051808781666182],[-81.989934934625879,29.051813313194923],[-81.989813635648005,29.051817838918556],[-81.98960459010614,29.051817822898389],[-81.989364783898154,29.051819081751624],[-81.989215709710848,29.051820866306141]]},"properties":{"STREET":"SE 117TH STREET RD","SUB_NAME":"SILVER OAKS","SEGMENT_ID":15700}},{"type":"Feature","geometry":{"type":"LineString","coordinates":[[-81.985211170028208,29.049327596222394],[-81.984980401454663,29.048563901222092],[-81.984746864856689,29.047821426211573],[-81.984706132763975,29.047684152799885],[-81.984691205512249,29.04758269121178],[-81.984681709193282,29.047501521676605],[-81.98468172259426,29.047410804366478],[-81.984688367969341,29.047335410377304],[-81.984702123511681,29.047242502986158],[-81.984725229902324,29.047144625980344],[-81.984764641391635,29.047022878221501],[-81.984962753386995,29.046482305005391],[-81.985055835905115,29.046249812433153]]},"properties":{"STREET":"SE 101ST COURT RD","SUB_NAME":"AVONLEA","SEGMENT_ID":39095}},{"type":"Feature","geometry":{"type":"LineString","coordinates":[[-81.991970237582052,29.049319162078845],[-81.992033165146879,29.049183058313861],[-81.992034514491792,29.04918190256998]]},"properties":{"STREET":"CARDINAL DR","SUB_NAME":"SMITH LAKE SHORE VILLAGE","SEGMENT_ID":27586}},{"type":"Feature","geometry":{"type":"LineString","coordinates":[[-81.989215709710848,29.051820866306141],[-81.989213525879379,29.05186739140817],[-81.989206267511278,29.051912009579851],[-81.98919175544404,29.051946428672103],[-81.989162735144959,29.051978297645444],[-81.989116305368242,29.052001240729794],[-81.989075680722834,29.052011435926072],[-81.989007489681839,29.052015255135238],[-81.988934947214631,29.052015249177295],[-81.988836289390051,29.052017790860923],[-81.988765197873164,29.052017784931891],[-81.988676695958404,29.052017777498236],[-81.988575135097136,29.052030517240173],[-81.988499688593791,29.052049632865273],[-81.988437879402611,29.052072191829151]]},"properties":{"STREET":"SE 117TH STREET RD","SUB_NAME":"SMITH LAKE VILLAGE","SEGMENT_ID":15699}},{"type":"Feature","geometry":{"type":"LineString","coordinates":[[-81.987231493967215,29.046958940701941],[-81.987227091867297,29.043658954662174]]},"properties":{"STREET":"SE 100TH AVE","SUB_NAME":" ","SEGMENT_ID":15803}},{"type":"Feature","geometry":{"type":"LineString","coordinates":[[-81.990039722274219,29.051781746545938],[-81.990069142944833,29.05174755944876],[-81.990089794501245,29.051699938520958],[-81.99012868892666,29.049044586652176],[-81.990115688411748,29.048988871553391],[-81.990089304250731,29.048965126043559]]},"properties":{"STREET":"SE 98TH CT","SUB_NAME":"SILVER OAKS","SEGMENT_ID":19041}},{"type":"Feature","geometry":{"type":"LineString","coordinates":[[-81.988584248028886,29.046028088831097],[-81.988126463296695,29.045887838879239],[-81.988092506182753,29.045868737249354],[-81.988071754352177,29.04584401195228]]},"properties":{"STREET":"SE 121ST PL","SUB_NAME":"VICTORIA HEIGHTS","SEGMENT_ID":22437}},{"type":"Feature","geometry":{"type":"LineString","coordinates":[[-81.992299951377447,29.05295650495162],[-81.992299423591348,29.052956177392979],[-81.992159712273605,29.05287066365025],[-81.992107516852641,29.052840232935683],[-81.992060873554692,29.052812125003044],[-81.99201423082323,29.052776990983851],[-81.991976916268342,29.052740686343867],[-81.991936937295421,29.052700868949312],[-81.991900957150833,29.05265870945966],[-81.991864976376178,29.05261186531159],[-81.991832994060431,29.052567363721035],[-81.99180767612097,29.052522862529354],[-81.991782357362027,29.052476019008246],[-81.991762643432082,29.052426831697105],[-81.991742498181523,29.052378358963647],[-81.991725091673914,29.052328855087111],[-81.991707740732892,29.052278107866684],[-81.991697083046986,29.052225410323707],[-81.991686424902468,29.052178567688127],[-81.991679765831591,29.052125870390508],[-81.991678437290545,29.052072002260367],[-81.991677134790308,29.0516937555727],[-81.991675852042889,29.05106958912987],[-81.991678576109663,29.050342370502008],[-81.991681262281361,29.050074201515962],[-81.99168659823512,29.050016821196635],[-81.991690600595476,29.049968808290199],[-81.991699933645435,29.049916111964798],[-81.991711931049423,29.049866928388319],[-81.991729260715317,29.049818917203783],[-81.991757252010586,29.049758024785028],[-81.991970237582052,29.049319162078845]]},"properties":{"STREET":"CARDINAL DR","SUB_NAME":"SMITH LAKE SHORE VILLAGE","SEGMENT_ID":31489}},{"type":"Feature","geometry":{"type":"LineString","coordinates":[[-81.98631589077236,29.045313722583273],[-81.986316105736975,29.043528887422248]]},"properties":{"STREET":"SE 100TH CT","SUB_NAME":"LAKE WEIR HEIGHTS SECOND ADDITION REPLAT UNIT 3","SEGMENT_ID":37186}},{"type":"Feature","geometry":{"type":"LineString","coordinates":[[-81.985339176351118,29.044321034116461],[-81.985358669972513,29.044305452008121],[-81.985373948584865,29.044290297120163],[-81.985388734825037,29.044271679214042],[-81.985398592443971,29.044253492964156],[-81.985402538335606,29.044231841303688],[-81.985406206964655,29.044195808121213],[-81.985406017349561,29.04352938712158]]},"properties":{"STREET":"SE 101ST AVE","SUB_NAME":"LAKE WEIR HEIGHTS SECOND ADDITION REPLAT UNIT 3","SEGMENT_ID":37195}},{"type":"Feature","geometry":{"type":"LineString","coordinates":[[-81.988437879402611,29.052072191829151],[-81.988437213752491,29.051936278306258],[-81.988435267367834,29.051820977306402],[-81.988437257319021,29.05154563343768],[-81.988440207483237,29.048110067912877]]},"properties":{"STREET":"SE 99TH CT","SUB_NAME":"SMITH LAKE VILLAGE","SEGMENT_ID":2436}},{"type":"Feature","geometry":{"type":"LineString","coordinates":[[-81.988858273189265,29.046056854969414],[-81.988830079376399,29.046075301606727],[-81.988793401804401,29.04608723485218],[-81.988759460927724,29.046077637138989],[-81.988584248028886,29.046028088831097]]},"properties":{"STREET":"SE 121ST PL","SUB_NAME":"VICTORIA HEIGHTS","SEGMENT_ID":2454}},{"type":"Feature","geometry":{"type":"LineString","coordinates":[[-81.988437879402611,29.052072191829151],[-81.988307929471873,29.052134170066189],[-81.98820803869134,29.05219611382628],[-81.988114023098845,29.05226150023789],[-81.987994544145849,29.052345813284923],[-81.987666837450632,29.052578615671976]]},"properties":{"STREET":"SE 117TH STREET RD","SUB_NAME":"SMITH LAKE VILLAGE","SEGMENT_ID":5727}},{"type":"Feature","geometry":{"type":"LineString","coordinates":[[-81.989215709710848,29.051820866306141],[-81.989221318234598,29.048928349816311]]},"properties":{"STREET":"SE 98TH TER","SUB_NAME":"SMITH LAKE VILLAGE","SEGMENT_ID":5766}},{"type":"Feature","geometry":{"type":"LineString","coordinates":[[-81.980198018326135,29.047386968067649],[-81.980232797596628,29.045528160407244]]},"properties":{"STREET":"SE 104TH CT","SUB_NAME":"LAKE WEIR HEIGHTS","SEGMENT_ID":5801}},{"type":"Feature","geometry":{"type":"LineString","coordinates":[[-81.990089304250731,29.048965126043559],[-81.989988032959005,29.048936149848014],[-81.989830601227098,29.048929850011586],[-81.989221318234598,29.048928349816311]]},"properties":{"STREET":"SE 119TH PL","SUB_NAME":"SILVER OAKS","SEGMENT_ID":9036}},{"type":"Feature","geometry":{"type":"LineString","coordinates":[[-81.988564491171402,29.047324191209647],[-81.988576580797428,29.046513858350465],[-81.988584248028886,29.046028088831097]]},"properties":{"STREET":"SE 99TH CT","SUB_NAME":"VICTORIA HEIGHTS","SEGMENT_ID":12432}},{"type":"Feature","geometry":{"type":"LineString","coordinates":[[-81.988066716311806,29.043653771576185],[-81.988065914956195,29.040864763737183],[-81.988065922280697,29.040801102213255],[-81.988074981929884,29.040759723387517],[-81.988102723810428,29.040722318971955]]},"properties":{"STREET":"SE 99TH TER","SUB_NAME":"VICTORIA HEIGHTS","SEGMENT_ID":15835}},{"type":"Feature","geometry":{"type":"LineString","coordinates":[[-81.980232797596628,29.045528160407244],[-81.980129623657078,29.045509637553085],[-81.980071264154148,29.045507399364574],[-81.979941858348241,29.045496231491189],[-81.979855587772974,29.045487299511361],[-81.979771854856523,29.045476138317035],[-81.979698274592323,29.045456059538179],[-81.979612007578339,29.045429290169711],[-81.979538426791507,29.04540698176179],[-81.979477534420354,29.045377985726745],[-81.979387234028863,29.045316342358682]]},"properties":{"STREET":"SE 121ST STREET RD","SUB_NAME":"LAKE WEIR HEIGHTS","SEGMENT_ID":19074}},{"type":"Feature","geometry":{"type":"LineString","coordinates":[[-81.98181999331608,29.044504697585381],[-81.981029802396179,29.044262917169373]]},"properties":{"STREET":"SE 123RD STREET RD","SUB_NAME":"LAKE WEIR HEIGHTS","SEGMENT_ID":22445}},{"type":"Feature","geometry":{"type":"LineString","coordinates":[[-81.979389808261686,29.044525532244826],[-81.979387821463888,29.043760771156894]]},"properties":{"STREET":"SE 104TH TER","SUB_NAME":"LAKE WEIR HEIGHTS","SEGMENT_ID":22453}},{"type":"Feature","geometry":{"type":"LineString","coordinates":[[-81.980249003449757,29.044024229211693],[-81.979387821463888,29.043760771156894]]},"properties":{"STREET":"SE 123RD STREET RD","SUB_NAME":"LAKE WEIR HEIGHTS","SEGMENT_ID":22454}},{"type":"Feature","geometry":{"type":"LineString","coordinates":[[-81.982654244732814,29.045517279603182],[-81.982646062433574,29.045025030819271],[-81.982666413727159,29.044777404562243]]},"properties":{"STREET":"SE 102ND TER","SUB_NAME":"LAKE WEIR HEIGHTS","SEGMENT_ID":25769}},{"type":"Feature","geometry":{"type":"LineString","coordinates":[[-81.979387821463888,29.043760771156894],[-81.979396702044937,29.041388410541352]]},"properties":{"STREET":"SE 104TH TER","SUB_NAME":"LAKE WEIR HEIGHTS","SEGMENT_ID":25799}},{"type":"Feature","geometry":{"type":"LineString","coordinates":[[-81.992348012554743,29.048481355225572],[-81.992291497449756,29.048463880192877],[-81.991235816382755,29.048138264652533],[-81.990194841396629,29.04781763059411],[-81.989228525340963,29.047526647983478]]},"properties":{"STREET":"E HWY 25","SUB_NAME":" ","SEGMENT_ID":36801}},{"type":"Feature","geometry":{"type":"LineString","coordinates":[[-81.984412259680141,29.044796699119594],[-81.98441132458187,29.044350650833877]]},"properties":{"STREET":"SE 101ST CT","SUB_NAME":"LAKE WEIR HEIGHTS SECOND ADDITION REPLAT UNIT 3","SEGMENT_ID":37183}},{"type":"Feature","geometry":{"type":"LineString","coordinates":[[-81.984501618867426,29.043526199994808],[-81.98356178612525,29.043524964911779]]},"properties":{"STREET":"SE 122ND LN","SUB_NAME":"LAKE WEIR HEIGHTS SECOND ADDITION REPLAT UNIT 3","SEGMENT_ID":37200}},{"type":"Feature","geometry":{"type":"LineString","coordinates":[[-81.980443884343018,29.055173647312838],[-81.980710908124394,29.054729846338656],[-81.98080334716218,29.054531394590406],[-81.980854717110532,29.054341958838901],[-81.980879390759313,29.054159734811297],[-81.980895996972109,29.053187258647139],[-81.980918613244128,29.053028490010661],[-81.980974082717935,29.052871530589563],[-81.98105008391866,29.052721790492548],[-81.981169208649234,29.052557622597543],[-81.981306805595622,29.052431345794115],[-81.981471094840188,29.052308680759083],[-81.981645644181711,29.052220298229518],[-81.981857151825778,29.052144548810713],[-81.982052223963464,29.052112099185315],[-81.982261665949622,29.052103105998899],[-81.98252859996343,29.052104944656914],[-81.982848918220853,29.052114007870262],[-81.982961854077857,29.052103196666621],[-81.98308300303151,29.052090581838694],[-81.983202100282213,29.052065338304232],[-81.983348478655259,29.052010748616755],[-81.983476642537042,29.051942766662268],[-81.983575147750017,29.051873314751802]]},"properties":{"STREET":"SE 101ST COURT RD","SUB_NAME":"AVONLEA","SEGMENT_ID":39091}},{"type":"Feature","geometry":{"type":"LineString","coordinates":[[-81.981025474356741,29.047378319143931],[-81.980198018326135,29.047386968067649]]},"properties":{"STREET":"SE 120TH PL","SUB_NAME":"LAKE WEIR HEIGHTS","SEGMENT_ID":5788}},{"type":"Feature","geometry":{"type":"LineString","coordinates":[[-81.987666837450632,29.052578615671976],[-81.987507227794651,29.05270608434887],[-81.987459841310084,29.052754521650133],[-81.987421616234499,29.052796589681648],[-81.98739104382021,29.052843179756039],[-81.987341039776396,29.052950126148065],[-81.987324382874732,29.053009477589409],[-81.987302610356608,29.053083416639829],[-81.987293894332211,29.053175203157267],[-81.987290982081191,29.053259342480384],[-81.987295324522336,29.053344756511077],[-81.987308371618596,29.053431446287956],[-81.987324319747472,29.053525785882563],[-81.987344618868207,29.053627774527929]]},"properties":{"STREET":"SE 117TH STREET RD","SUB_NAME":"SMITH LAKE VILLAGE","SEGMENT_ID":12364}},{"type":"Feature","geometry":{"type":"LineString","coordinates":[[-81.979456075878218,29.047324721819052],[-81.979403578746641,29.047248709990338],[-81.979375681412478,29.047170665468165],[-81.979363010552305,29.047088163296223],[-81.979387234028863,29.045316342358682]]},"properties":{"STREET":"SE 104TH TER","SUB_NAME":"LAKE WEIR HEIGHTS","SEGMENT_ID":22441}},{"type":"Feature","geometry":{"type":"LineString","coordinates":[[-81.992438797441437,29.044055506566604],[-81.991904924016495,29.044055433042669]]},"properties":{"STREET":"SE 122ND LN","SUB_NAME":"JOG ACRES","SEGMENT_ID":25777}},{"type":"Feature","geometry":{"type":"LineString","coordinates":[[-81.987227091867297,29.043658954662174],[-81.987226286524177,29.043411698290235],[-81.987230941665416,29.040895031654568],[-81.98723121842211,29.040298282915373]]},"properties":{"STREET":"SE 100TH AVE","SUB_NAME":"LAKE WEIR HGTS 2 ADD REPLAT","SEGMENT_ID":33477}},{"type":"Feature","geometry":{"type":"LineString","coordinates":[[-81.985887527832901,29.054535634324754],[-81.985887574990741,29.054189222173662],[-81.985881432670681,29.054057513641755],[-81.985846542174926,29.053931213966557],[-81.98578906610129,29.053801303666265],[-81.985717210250243,29.05371288865733],[-81.985594024019449,29.053595600503961],[-81.984764567362092,29.052893664415674],[-81.984087050876767,29.052307212580629],[-81.983575147750017,29.051873314751802]]},"properties":{"STREET":"SE 102ND AVENUE RD","SUB_NAME":"AVONLEA","SEGMENT_ID":39093}},{"type":"Feature","geometry":{"type":"LineString","coordinates":[[-81.973701007541223,29.05503563604918],[-81.975116637298086,29.051311341919952],[-81.976043895827573,29.048886019455086]]},"properties":{"STREET":"SE 108TH TERRACE RD","SUB_NAME":" ","SEGMENT_ID":2466}},{"type":"Feature","geometry":{"type":"LineString","coordinates":[[-81.976043895827573,29.048886019455086],[-81.97610897297065,29.048717302409177],[-81.976494144840586,29.047702614623766],[-81.977202449124874,29.045833750814896],[-81.977878871756516,29.044057610549682]]},"properties":{"STREET":"SE 108TH TERRACE RD","SUB_NAME":" ","SEGMENT_ID":39502}},{"type":"Feature","geometry":{"type":"LineString","coordinates":[[-81.981850941394299,29.047398546923702],[-81.981822266505745,29.045987395241408]]},"properties":{"STREET":"SE 103RD CT","SUB_NAME":"LAKE WEIR HEIGHTS","SEGMENT_ID":30591}},{"type":"Feature","geometry":{"type":"LineString","coordinates":[[-81.981025474356741,29.047378319143931],[-81.981033572094034,29.045765496002797]]},"properties":{"STREET":"SE 103RD TER","SUB_NAME":"LAKE WEIR HEIGHTS","SEGMENT_ID":12433}},{"type":"Feature","geometry":{"type":"LineString","coordinates":[[-81.98181999331608,29.044504697585381],[-81.981836384241973,29.041395294256617]]},"properties":{"STREET":"SE 103RD CT","SUB_NAME":"LAKE WEIR HEIGHTS","SEGMENT_ID":15828}},{"type":"Feature","geometry":{"type":"LineString","coordinates":[[-81.988440207483237,29.048110067912877],[-81.988034203606915,29.048110676581111],[-81.987916697949458,29.04810550319845],[-81.987844235852791,29.048108938867387],[-81.987781564903685,29.04811753734754],[-81.987722420636743,29.048147166525091]]},"properties":{"STREET":"SE 119TH LN","SUB_NAME":"SMITH LAKE VILLAGE","SEGMENT_ID":22422}},{"type":"Feature","geometry":{"type":"LineString","coordinates":[[-81.991947616656475,29.047267097502893],[-81.991905773894416,29.047203447057541],[-81.99189037138396,29.0471289789247],[-81.991887301788097,29.046977335676452],[-81.991904924016495,29.044055433042669]]},"properties":{"STREET":"SE 97TH CT","SUB_NAME":"JOG ACRES","SEGMENT_ID":25776}},{"type":"Feature","geometry":{"type":"LineString","coordinates":[[-81.991970237582052,29.049319162078845],[-81.991437455560245,29.049129153581266]]},"properties":{"STREET":"EAGLE RD","SUB_NAME":"SMITH LAKE SHORE VILLAGE","SEGMENT_ID":27585}},{"type":"Feature","geometry":{"type":"LineString","coordinates":[[-81.985406017349561,29.04352938712158],[-81.985411227890836,29.042276288439883],[-81.985414222251222,29.042193697347415],[-81.985441397196482,29.042101188270408],[-81.985470840113578,29.04204598975598],[-81.985502798408291,29.041991885073724],[-81.985577457635898,29.041914935548402],[-81.985652468137928,29.041858563495673],[-81.985728769669066,29.041821120543389],[-81.985819854572355,29.041789963513786],[-81.985920079661682,29.041773607537138],[-81.986317226271623,29.04177525645186]]},"properties":{"STREET":"SE 101ST AVE","SUB_NAME":"LAKE WEIR HEIGHTS SECOND ADDITION REPLAT UNIT 3","SEGMENT_ID":37196}},{"type":"Feature","geometry":{"type":"LineString","coordinates":[[-81.982666413727159,29.044777404562243],[-81.98181999331608,29.044504697585381]]},"properties":{"STREET":"SE 123RD STREET RD","SUB_NAME":"LAKE WEIR HEIGHTS","SEGMENT_ID":5807}},{"type":"Feature","geometry":{"type":"LineString","coordinates":[[-81.982668169007596,29.046181340903377],[-81.982542591233013,29.046181118917847],[-81.982458857466185,29.046169959399627],[-81.982357363628353,29.046149878430654],[-81.981822266505745,29.045987395241408]]},"properties":{"STREET":"SE 121ST STREET RD","SUB_NAME":"LAKE WEIR HEIGHTS","SEGMENT_ID":9077}},{"type":"Feature","geometry":{"type":"LineString","coordinates":[[-81.989221318234598,29.048928349816311],[-81.989226102818577,29.048112300544247]]},"properties":{"STREET":"SE 98TH TER","SUB_NAME":"SMITH LAKE VILLAGE","SEGMENT_ID":12411}},{"type":"Feature","geometry":{"type":"LineString","coordinates":[[-81.988564491171402,29.047324191209647],[-81.987231493967215,29.046958940701941]]},"properties":{"STREET":"E HWY 25","SUB_NAME":" ","SEGMENT_ID":12425}},{"type":"Feature","geometry":{"type":"LineString","coordinates":[[-81.979387821463888,29.043760771156894],[-81.978538182995848,29.043501090885453]]},"properties":{"STREET":"SE 123RD STREET RD","SUB_NAME":"LAKE WEIR HEIGHTS","SEGMENT_ID":12448}},{"type":"Feature","geometry":{"type":"LineString","coordinates":[[-81.978538182995848,29.043501090885453],[-81.978550892666306,29.040679767161144]]},"properties":{"STREET":"SE 105TH CT","SUB_NAME":"LAKE WEIR HEIGHTS","SEGMENT_ID":12478}},{"type":"Feature","geometry":{"type":"LineString","coordinates":[[-81.979028949313005,29.044411186885366],[-81.977878871756516,29.044057610549682]]},"properties":{"STREET":"E HWY 25","SUB_NAME":" ","SEGMENT_ID":15795}},{"type":"Feature","geometry":{"type":"LineString","coordinates":[[-81.987666837450632,29.052578615671976],[-81.987652343302457,29.052457504626933],[-81.987647998593246,29.052397587283455],[-81.987651829778983,29.052139274194865],[-81.987657892096763,29.050562929054557],[-81.987657955804011,29.050027728544055],[-81.98766011531059,29.048344685824041],[-81.987662082471189,29.048268966446013],[-81.987664045943788,29.048224223332365],[-81.987689511502552,29.048177760819549],[-81.987722420636743,29.048147166525091]]},"properties":{"STREET":"SE 99TH TER","SUB_NAME":"SMITH LAKE VILLAGE","SEGMENT_ID":22421}},{"type":"Feature","geometry":{"type":"LineString","coordinates":[[-81.981033572094034,29.045765496002797],[-81.980232797596628,29.045528160407244]]},"properties":{"STREET":"SE 121ST STREET RD","SUB_NAME":"LAKE WEIR HEIGHTS","SEGMENT_ID":22438}},{"type":"Feature","geometry":{"type":"LineString","coordinates":[[-81.991904924016495,29.044055433042669],[-81.991469981428651,29.044048711181969]]},"properties":{"STREET":"SE 122ND LN","SUB_NAME":"JOG ACRES","SEGMENT_ID":22451}},{"type":"Feature","geometry":{"type":"LineString","coordinates":[[-81.982666413727159,29.044777404562243],[-81.982664986236387,29.044103220216893],[-81.98263417899939,29.043776457980975],[-81.98264115372038,29.04311498779305],[-81.982658522737481,29.042825421146048],[-81.982676702971148,29.042571724865429],[-81.982684954587967,29.041393828237233]]},"properties":{"STREET":"SE 102ND TER","SUB_NAME":"LAKE WEIR HEIGHTS","SEGMENT_ID":25797}},{"type":"Feature","geometry":{"type":"LineString","coordinates":[[-81.992657961270496,29.052515885640478],[-81.992448732275065,29.052378861600818],[-81.992398091176383,29.052341385163487],[-81.992363442291463,29.052306251941598],[-81.992328795063372,29.052262921477713],[-81.99231147169256,29.052224275744067],[-81.992300812574769,29.052186802454703],[-81.992290154074297,29.052141131028922],[-81.992286165393566,29.052021683984009],[-81.992286351484282,29.049520333662439],[-81.992275693263991,29.049474662217424],[-81.992249042534098,29.049437187987873],[-81.992202399789747,29.049407908927691],[-81.991970237582052,29.049319162078845]]},"properties":{"STREET":"EAGLE RD","SUB_NAME":"SMITH LAKE SHORE VILLAGE","SEGMENT_ID":27584}},{"type":"Feature","geometry":{"type":"LineString","coordinates":[[-81.984501618867426,29.043526199994808],[-81.984502767434009,29.042518706038855],[-81.984496037587832,29.042446008287651],[-81.984474210090497,29.042367299583297],[-81.98444706887669,29.042303964266768],[-81.984408936486076,29.042245586618545],[-81.984354135565852,29.042181200517387],[-81.984289930747664,29.042129450675791],[-81.984216623656238,29.0420851246244],[-81.9841455416163,29.042054239210007],[-81.984042104059881,29.042031912587632],[-81.983939007149232,29.042024675715091],[-81.983565927689853,29.042024423058802]]},"properties":{"STREET":"SE 101ST CT","SUB_NAME":"LAKE WEIR HEIGHTS SECOND ADDITION REPLAT UNIT 3","SEGMENT_ID":37201}},{"type":"Feature","geometry":{"type":"LineString","coordinates":[[-81.983575147750017,29.051873314751802],[-81.983720656672688,29.051761534298205],[-81.98382935228544,29.051631440146927],[-81.983904086766231,29.051506115813716],[-81.983978826599696,29.051344982562814],[-81.984057640561659,29.051185043469552],[-81.984124219290507,29.051085978961929],[-81.984200304694696,29.050998851830748],[-81.984291331342504,29.050927242952287],[-81.984400016154012,29.050865186721833],[-81.984580698972664,29.050791201494448],[-81.984770888903157,29.050725572235713],[-81.984906739764483,29.05067545496394],[-81.985015423598952,29.050615784769516],[-81.985134978684329,29.050526274506904],[-81.985230082188352,29.050430792851756],[-81.985284431015288,29.050350824120009],[-81.985327913014828,29.050261306226421],[-81.98536324321806,29.050183722820602],[-81.985383634659001,29.050078684033121],[-81.985390440156038,29.049986773777078],[-81.985379588080832,29.049873376449238],[-81.985354274818846,29.0497545999389],[-81.985211170028208,29.049327596222394]]},"properties":{"STREET":"SE 101ST COURT RD","SUB_NAME":"AVONLEA","SEGMENT_ID":39092}},{"type":"Feature","geometry":{"type":"LineString","coordinates":[[-81.977724728850262,29.04325241187453],[-81.976920280791589,29.043006135866491]]},"properties":{"STREET":"SE 123RD STREET RD","SUB_NAME":"LAKE WEIR HEIGHTS","SEGMENT_ID":5827}},{"type":"Feature","geometry":{"type":"LineString","coordinates":[[-81.976920280791589,29.043006135866491],[-81.976922949435433,29.040675372083395]]},"properties":{"STREET":"SE 106TH CT","SUB_NAME":"LAKE WEIR HEIGHTS","SEGMENT_ID":9127}},{"type":"Feature","geometry":{"type":"LineString","coordinates":[[-81.980249003449757,29.044024229211693],[-81.980253222783432,29.041390945589086]]},"properties":{"STREET":"SE 104TH CT","SUB_NAME":"LAKE WEIR HEIGHTS","SEGMENT_ID":12472}},{"type":"Feature","geometry":{"type":"LineString","coordinates":[[-81.9929215356062,29.047313382628925],[-81.99205214323095,29.047305002313056],[-81.991998216080717,29.047291459455462],[-81.991947616656475,29.047267097502893]]},"properties":{"STREET":"SE 120TH PL","SUB_NAME":"JOG ACRES","SEGMENT_ID":15762}},{"type":"Feature","geometry":{"type":"LineString","coordinates":[[-81.988071754352177,29.04584401195228],[-81.988062628152917,29.045817407328052],[-81.988066716311806,29.043653771576185]]},"properties":{"STREET":"SE 99TH TER","SUB_NAME":"VICTORIA HEIGHTS","SEGMENT_ID":19089}},{"type":"Feature","geometry":{"type":"LineString","coordinates":[[-81.979389808261686,29.044525532244826],[-81.979028949313005,29.044411186885366]]},"properties":{"STREET":"E HWY 25","SUB_NAME":"LAKE WEIR HEIGHTS","SEGMENT_ID":25773}},{"type":"Feature","geometry":{"type":"LineString","coordinates":[[-81.986316105736975,29.043528887422248],[-81.986317226271623,29.04177525645186]]},"properties":{"STREET":"SE 100TH CT","SUB_NAME":"LAKE WEIR HEIGHTS SECOND ADDITION REPLAT UNIT 3","SEGMENT_ID":37187}},{"type":"Feature","geometry":{"type":"LineString","coordinates":[[-81.98356178612525,29.043524964911779],[-81.983565927689853,29.042024423058802]]},"properties":{"STREET":"SE 102ND AVE","SUB_NAME":"LAKE WEIR HEIGHTS SECOND ADDITION REPLAT UNIT 3","SEGMENT_ID":37192}},{"type":"Feature","geometry":{"type":"LineString","coordinates":[[-81.985406017349561,29.04352938712158],[-81.984501618867426,29.043526199994808]]},"properties":{"STREET":"SE 122ND LN","SUB_NAME":"LAKE WEIR HEIGHTS SECOND ADDITION REPLAT UNIT 3","SEGMENT_ID":37199}},{"type":"Feature","geometry":{"type":"LineString","coordinates":[[-81.985211170028208,29.049327596222394],[-81.985136507284253,29.049339789545499],[-81.98493953127921,29.049373189947381],[-81.984859383515342,29.049382729790533],[-81.984644753834715,29.049382705420502],[-81.983437130067472,29.049326460688174],[-81.982676421974574,29.049294136082271],[-81.982480812657428,29.049280980691151],[-81.982350407410962,29.049260671282184],[-81.982213212798527,29.049228424552233],[-81.982002670743967,29.049160358986356],[-81.98181793645945,29.049103039162087],[-81.981675307393289,29.049075566025166],[-81.981557127327804,29.049064806368889],[-81.980420136907298,29.049059871429581]]},"properties":{"STREET":"SE 118TH LN","SUB_NAME":"AVONLEA","SEGMENT_ID":39090}},{"type":"Feature","geometry":{"type":"LineString","coordinates":[[-81.993927950034688,29.054354487505258],[-81.993812004483175,29.054290074628042],[-81.993708052904779,29.054228004536267],[-81.993632087928063,29.054184672478591],[-81.993504147764483,29.054120258764559],[-81.993353550317252,29.054061698715525],[-81.993188292444117,29.054000796332755],[-81.993003043973417,29.053932866636853],[-81.992693853655766,29.053821600616963],[-81.992616555430715,29.053793492112256],[-81.992557915528295,29.053780606996366],[-81.992497942246203,29.053774748751845],[-81.992439301002705,29.05378060037015],[-81.992376661094553,29.053786451735842],[-81.992311355059755,29.053796987567363],[-81.992247382837263,29.05380869460603],[-81.992196738028071,29.053812204255994],[-81.992140761936213,29.053812200991459],[-81.992099447013416,29.053806343659719],[-81.992059465519603,29.05379346032495],[-81.992018151961332,29.053770036441854],[-81.991986168407962,29.053736074450359],[-81.9919675120628,29.053710310480188],[-81.99195285547178,29.053670493706168],[-81.991946194688055,29.05362365224304],[-81.991942201341047,29.053568612805673],[-81.99194087319151,29.053507718620235],[-81.991946207970031,29.053452679741579],[-81.991958206602916,29.053404667331108],[-81.99198486651683,29.053348458563494],[-81.992027518327319,29.053286395832806],[-81.992076834838571,29.053219649735631],[-81.992299951377447,29.05295650495162]]},"properties":{"STREET":"MOCKINGBIRD TRL","SUB_NAME":"SMITH LAKE SHORE VILLAGE","SEGMENT_ID":48733}},{"type":"Feature","geometry":{"type":"LineString","coordinates":[[-81.976920280791589,29.043006135866491],[-81.976116224516062,29.042760543544368]]},"properties":{"STREET":"SE 123RD STREET RD","SUB_NAME":"LAKE WEIR HEIGHTS","SEGMENT_ID":9104}},{"type":"Feature","geometry":{"type":"LineString","coordinates":[[-81.979387234028863,29.045316342358682],[-81.979277105545776,29.0452486316271],[-81.979081741550033,29.045163871549697],[-81.979022554439794,29.045117089769697]]},"properties":{"STREET":"SE 121ST STREET RD","SUB_NAME":"LAKE WEIR HEIGHTS","SEGMENT_ID":15784}},{"type":"Feature","geometry":{"type":"LineString","coordinates":[[-81.988858273189265,29.046056854969414],[-81.988878984967769,29.046035915601298],[-81.988888497487594,29.046004881464476],[-81.988897195926427,29.040879158777511],[-81.988899013924751,29.040815497403223],[-81.988891774476556,29.040775708802695],[-81.988874354900688,29.040735283248729]]},"properties":{"STREET":"SE 99TH AVE","SUB_NAME":"VICTORIA HEIGHTS","SEGMENT_ID":22479}},{"type":"Feature","geometry":{"type":"LineString","coordinates":[[-81.982668169007596,29.046181340903377],[-81.982654244732814,29.045517279603182]]},"properties":{"STREET":"SE 102ND TER","SUB_NAME":"LAKE WEIR HEIGHTS","SEGMENT_ID":25765}},{"type":"Feature","geometry":{"type":"LineString","coordinates":[[-81.982654244732814,29.045517279603182],[-81.980896964855958,29.044974364818703],[-81.979389808261686,29.044525532244826]]},"properties":{"STREET":"E HWY 25","SUB_NAME":"LAKE WEIR HEIGHTS","SEGMENT_ID":25772}},{"type":"Feature","geometry":{"type":"LineString","coordinates":[[-81.98441132458187,29.044350650833877],[-81.983736371808121,29.044349773178176],[-81.983695505572797,29.044344902210167],[-81.983659027973147,29.044332495894832],[-81.983634422267784,29.044318690673226],[-81.983614025090475,29.044300040700044]]},"properties":{"STREET":"SE 122ND ST","SUB_NAME":"LAKE WEIR HEIGHTS SECOND ADDITION REPLAT UNIT 3","SEGMENT_ID":37185}},{"type":"Feature","geometry":{"type":"LineString","coordinates":[[-81.987227091867297,29.043658954662174],[-81.98688079920349,29.0436588527091],[-81.986785876453766,29.043653525345917],[-81.98666796530739,29.043623543452423],[-81.986562283104504,29.043577900846373],[-81.986462596634908,29.043545692857002],[-81.986371363363645,29.0435314122157],[-81.986316105736975,29.043528887422248]]},"properties":{"STREET":"SE 122ND LN","SUB_NAME":"LAKE WEIR HEIGHTS SECOND ADDITION REPLAT UNIT 3","SEGMENT_ID":37197}},{"type":"Feature","geometry":{"type":"LineString","coordinates":[[-81.985055835905115,29.046249812433153],[-81.982654244732814,29.045517279603182]]},"properties":{"STREET":"E HWY 25","SUB_NAME":" ","SEGMENT_ID":39094}},{"type":"Feature","geometry":{"type":"LineString","coordinates":[[-81.976043895827573,29.048886019455086],[-81.975781099542857,29.048807539604098],[-81.975655510240216,29.048781717931139],[-81.975542430331345,29.048779785447501],[-81.97548679243954,29.048785362236469],[-81.975386999728627,29.048800499623187],[-81.975286174166541,29.048827863576182],[-81.975152350922357,29.048861664551456],[-81.975047861013024,29.048882584447696],[-81.974941527083814,29.048898403315388],[-81.974865224853986,29.048901182522457],[-81.974438254948495,29.048898308462196],[-81.974257802087692,29.048890489098746],[-81.974123993121836,29.04886952411173],[-81.971720938028184,29.048467965059569],[-81.971572465026256,29.048446993538267],[-81.971438653045439,29.048437300796973],[-81.971321336390744,29.048437275794644],[-81.971235180125873,29.048446921716444],[-81.971072028678023,29.048474269142069],[-81.970765886217848,29.0485434647623],[-81.970175594524761,29.048693134617253],[-81.96984195117335,29.048773596940205],[-81.969667799641101,29.048807383386677],[-81.969543148103583,29.048813797470881],[-81.969409335442165,29.048808935332843],[-81.969317685200195,29.048797639501853],[-81.969193044659946,29.048767006445885],[-81.96903358350481,29.048712204830224],[-81.968881459915465,29.048641297177628],[-81.968613876017116,29.048493046727646]]},"properties":{"STREET":"SE 119TH ST","SUB_NAME":"BOWERS COVE ESTATES","SEGMENT_ID":39503}}]}