{"type":"FeatureCollection","features":[{"type":"Feature","geometry":{"type":"Polygon","coordinates":[[[-81.985728958518933,29.071451396557471],[-81.9859163514881,29.071474165359067],[-81.986163553459789,29.071492176030116],[-81.986403545660906,29.071509313172264],[-81.986716687361479,29.071529324445013],[-81.987018475368842,29.07140970736387],[-81.987194821131453,29.071250807387614],[-81.987313042719805,29.071006706454366],[-81.98734631223445,29.070824413429598],[-81.98749996058487,29.070668767115173],[-81.987810634476958,29.070460065802411],[-81.987820220062829,29.070454829475263],[-81.987818963083683,29.070498566535083],[-81.987848668567395,29.070625364449025],[-81.987990884106594,29.070673439075186],[-81.988085009273064,29.070654076592199],[-81.988180547900356,29.070585609588708],[-81.988314114274004,29.070515602337611],[-81.988396456133827,29.070519444868491],[-81.988458840393776,29.070508545288252],[-81.988566949895642,29.070453923862928],[-81.988672859903332,29.070411353973949],[-81.988762586981693,29.0704160951916],[-81.988816650981605,29.070533531692341],[-81.988775800801889,29.070633280096942],[-81.988745322460758,29.070758925926921],[-81.988745474434381,29.070761980373639],[-81.98875177387292,29.07088905818458],[-81.988794363882079,29.070986623045108],[-81.98880930094073,29.071111626597109],[-81.988827467478032,29.071209230072288],[-81.988929835764566,29.071237137827648],[-81.989010457287378,29.071333163214764],[-81.989079292801165,29.071452393805156],[-81.989087942991205,29.071570474425986],[-81.989160701956393,29.071585471075139],[-81.989315802616517,29.071604310567086],[-81.989422813617679,29.071555715194471],[-81.989534223161584,29.071483015570593],[-81.98957177347414,29.071401345272061],[-81.989633681264593,29.07131031361039],[-81.989682227903316,29.071168384205837],[-81.989833250575302,29.071039347916237],[-81.989922501153231,29.070963956844452],[-81.990011440124164,29.070931643498184],[-81.990147682224546,29.070929713510708],[-81.990276538970306,29.070926885474975],[-81.990383683227662,29.070840902034796],[-81.990497768091089,29.070836280660373],[-81.990604776786498,29.070787683483896],[-81.990720270838821,29.07073395740159],[-81.990794438653836,29.070699850476437],[-81.990854934807444,29.070657921906452],[-81.990919827116286,29.070591890873679],[-81.991032811633346,29.070593293985606],[-81.991167953218948,29.070597388832319],[-81.991383238788956,29.070617376009768],[-81.991503608694359,29.070619675702229],[-81.991609516677528,29.070577103589486],[-81.991771523211099,29.070516706683318],[-81.992049811967291,29.070439633475985],[-81.992190759965865,29.070370519460866],[-81.99225266289838,29.070279486641514],[-81.992354793435396,29.070174859961988],[-81.992379768457113,29.070079342535465],[-81.992415737214273,29.069923565813653],[-81.992460979620446,29.06979971208899],[-81.992515496695916,29.069707782264793],[-81.992570013695243,29.069615851521096],[-81.992556960958098,29.069521874507693],[-81.992651704154738,29.069416351620923],[-81.992657442054622,29.069406674923464],[-81.992740949380917,29.069340957863279],[-81.992750842939714,29.069286724385375],[-81.992745965963124,29.06923069623484],[-81.992707459461627,29.069152107007699],[-81.992659366786555,29.06908467252844],[-81.992638619366019,29.069032877325444],[-81.992673967585233,29.068963257023746],[-81.992754727226938,29.06889299130555],[-81.9928174194511,29.068839011118925],[-81.992895982067253,29.068780797930156],[-81.992917744262357,29.068723478618743],[-81.992925043741124,29.068704253943451],[-81.992934937149073,29.068650020460836],[-81.992953625031745,29.068547578442605],[-81.992945758424497,29.068466550944684],[-81.992914636252806,29.068388857749056],[-81.992877678050263,29.068308584824688],[-81.992860567872938,29.068271421065301],[-81.992867889420978,29.068204477126365],[-81.992871869499069,29.068168083972768],[-81.992919789839547,29.068112309074703],[-81.993006835993015,29.068048965964287],[-81.993068736922396,29.067957931936213],[-81.993070835037614,29.067946427311707],[-81.993085225701279,29.06786754249767],[-81.993088523463811,29.067849464069688],[-81.993100615548471,29.067783178906485],[-81.993095450010543,29.067752898714446],[-81.993082374199062,29.067676252505439],[-81.993081104098309,29.067559068193059],[-81.993054378750941,29.067457270772],[-81.993060184567341,29.067384062901834],[-81.993126963200183,29.067349056090684],[-81.993236472169471,29.067245325666971],[-81.99330307922672,29.067087107727613],[-81.993341551569273,29.066876197806888],[-81.993333684792603,29.06679517036277],[-81.993214248745019,29.066663634484296],[-81.993173062505988,29.066516964725718],[-81.99319064986264,29.066420549459657],[-81.993229602723517,29.066289771067069],[-81.993261170424944,29.066158095809033],[-81.993359515766699,29.065991413637953],[-81.99338040054127,29.065876919033897],[-81.993407879515445,29.065726268462942],[-81.993422787132715,29.065561771612682],[-81.993366488328959,29.065280874056921],[-81.993418012454015,29.065049953255659],[-81.993704488021152,29.064846073633511],[-81.993854621868252,29.064537873460559],[-81.993854421927466,29.064218873672999],[-81.993779021578817,29.063789673312588],[-81.993860221798499,29.063481673172117],[-81.993860088274261,29.063283540325436],[-81.993747288375431,29.06309653987066],[-81.993741021255573,29.062986473446326],[-81.99374722110359,29.06295347312146],[-81.993841088155676,29.062920339680662],[-81.994047822050803,29.062909339845326],[-81.994066488529583,29.062826872839757],[-81.993841088042075,29.062777472937089],[-81.993765887978455,29.062749939409322],[-81.993747087980253,29.062694939773721],[-81.993947221279598,29.062353739899685],[-81.993991021486153,29.062139139471853],[-81.994453888714403,29.061517339874506],[-81.995211088225773,29.060675139053789],[-81.995480421994202,29.060526472769801],[-81.995586688310652,29.06039993912119],[-81.995624222333888,29.060284339326447],[-81.995655422286788,29.060080738899519],[-81.995617688596141,29.059970739212211],[-81.995548822252147,29.05989927260185],[-81.995198021516714,29.059717939072286],[-81.995197888586517,29.059547338988036],[-81.995304421437922,29.059365872192462],[-81.995686288550985,29.059310672190314],[-81.995824021679738,29.059167472182317],[-81.995936421822336,29.058699872541336],[-81.996004888762315,29.05806167211999],[-81.996067288840877,29.057846938764008],[-81.996100369160359,29.057765924049775],[-81.996204489411468,29.057547633085225],[-81.996313189749927,29.05740684141848],[-81.996400660083779,29.057134119383974],[-81.996194332097716,29.056899636699736],[-81.996124310372437,29.056854351739847],[-81.995971524469184,29.056755544224785],[-81.99594730449526,29.056598611937673],[-81.99596960429561,29.056476321657524],[-81.995975875224659,29.056441929924201],[-81.995976798440211,29.056312688823848],[-81.995879526107288,29.056183842098513],[-81.9957597936681,29.056095386407812],[-81.995723300768233,29.056081870071456],[-81.995611314316633,29.056040396392326],[-81.995550175212486,29.055878978619226],[-81.995509781424559,29.055769359033416],[-81.995394137143393,29.055699876411271],[-81.995187684349986,29.055631686164922],[-81.995064348637527,29.055604387785664],[-81.994892793763654,29.055675948717301],[-81.994772929235992,29.055753785992259],[-81.994575924707746,29.055840734636682],[-81.994397293488035,29.055868316926539],[-81.994225255577859,29.055859741267959],[-81.994198482736593,29.055856490616705],[-81.994084952617058,29.055842700980723],[-81.993935067848497,29.055836816307032],[-81.993818808667797,29.05585349402379],[-81.993627297026777,29.055910308561103],[-81.993586423846324,29.055930967958862],[-81.993519211768998,29.055964938286277],[-81.993405148908067,29.055969563079294],[-81.993377563841889,29.055963511423947],[-81.99321645483721,29.055928163818017],[-81.993183849721234,29.055919121638627],[-81.993058395064708,29.0558843268179],[-81.992912907558747,29.055854335964437],[-81.992787993272174,29.055752926550184],[-81.992778547890509,29.055597785731074],[-81.992807125011907,29.055441104426247],[-81.992834602246674,29.055290448033869],[-81.992856583335325,29.055169924351802],[-81.992871970605904,29.055085556521071],[-81.992926786208869,29.054950541069179],[-81.992994962186586,29.054866426410207],[-81.99310964131314,29.054775641255993],[-81.993181848800106,29.054717398050382],[-81.993185287458232,29.054712471011172],[-81.993206087933359,29.054655970376594],[-81.993216145369161,29.054646903727786],[-81.993314956792389,29.054560349621802],[-81.993303313227713,29.054417261441667],[-81.993132995949878,29.054316497064931],[-81.992959382651648,29.054233810866304],[-81.992813898443231,29.054203819036399],[-81.992721991153815,29.054211134827074],[-81.992584679618886,29.054219094138041],[-81.992465124521487,29.054253849089633],[-81.992360337821168,29.054290398648412],[-81.992217840608234,29.054285407267109],[-81.992070156797681,29.054267468082948],[-81.991963002490905,29.054192853811045],[-81.991893557581093,29.054159778601193],[-81.991829298226222,29.054139652810893],[-81.991827470338919,29.054139848309433],[-81.99172152363829,29.054151199002842],[-81.991601798952004,29.054062738048799],[-81.991606787425923,29.054021249207796],[-81.991616399042343,29.053941315879847],[-81.991454878092412,29.053792338498866],[-81.991332956303694,29.053715928953004],[-81.991246999289302,29.053741939418945],[-81.991174902609501,29.053672088991298],[-81.991183837797152,29.053457582554966],[-81.991210217930345,29.0533129523611],[-81.991204864645653,29.053176786853957],[-81.991212079899285,29.053054466872737],[-81.991216307471348,29.0529071457991],[-81.991160055189283,29.05280175516944],[-81.991035458232361,29.052657261287365],[-81.991030892992143,29.052558150282504],[-81.991008362498249,29.052488215917059],[-81.991001977702794,29.052468399977371],[-81.990817689294317,29.052402892542997],[-81.990728332950681,29.052413967534687],[-81.990616911537444,29.052427778177634],[-81.990468703984661,29.052470115839256],[-81.990465624592744,29.052470995963716],[-81.990452280689937,29.052467471436231],[-81.9902928069626,29.052425359247806],[-81.990177961234281,29.052392926947611],[-81.989955342591273,29.052372038489612],[-81.989751579455799,29.052371920900484],[-81.989609562599568,29.05244706260072],[-81.989472731710038,29.052535154609558],[-81.989331026213108,29.052567214836568],[-81.989167479110066,29.052553503402475],[-81.989065202801086,29.052534915910265],[-81.988906842939471,29.052534152852896],[-81.988762937202239,29.052578265866167],[-81.988565934674128,29.05266520515611],[-81.988444968871306,29.052749063668724],[-81.988429907103452,29.052761474634753],[-81.988347254235308,29.052829587632765],[-81.98817655466388,29.052929053440867],[-81.988200486486562,29.053289470606284],[-81.988210518826392,29.053317150017374],[-81.988073409999473,29.053394584892196],[-81.987906098322838,29.053535949677347],[-81.987879987733095,29.053679071001479],[-81.987844255352314,29.053874923291708],[-81.987842881258317,29.053882456421821],[-81.987683814177373,29.053978623092078],[-81.987519641200379,29.054051071265796],[-81.987354091848047,29.05413105054501],[-81.987179313277267,29.054209908856205],[-81.987053433740044,29.054279309222085],[-81.986857445388182,29.054370988168781],[-81.986734906473558,29.054525492366782],[-81.986684834244784,29.054696501599459],[-81.986660093869759,29.054832090486727],[-81.986483547059194,29.054972330989763],[-81.986297769753719,29.055111448627727],[-81.98623021914014,29.055326531947188],[-81.986180736913809,29.055597708701455],[-81.98617606309071,29.055623320918144],[-81.986107486218458,29.055688904090641],[-81.986029128009847,29.055756379230928],[-81.985846488975753,29.055826580121199],[-81.985683684201675,29.055891491242214],[-81.98549181356853,29.055960569871054],[-81.985350610176766,29.055958808056914],[-81.985117411660511,29.055715146003646],[-81.984840894094731,29.055410507503368],[-81.984448902821654,29.055159590294242],[-81.984181341694381,29.055006474359594],[-81.983605924945167,29.054772192673951],[-81.983262994849682,29.054726687091865],[-81.983081489436785,29.054823102922381],[-81.982880388062682,29.055001217756672],[-81.982682501436628,29.055187367034186],[-81.982315965150022,29.055861326047431],[-81.982279895428576,29.055956310569478],[-81.982169693619909,29.056172758986555],[-81.982105274668513,29.056318924251979],[-81.981944427658235,29.05647646567266],[-81.981719946917522,29.056672471214664],[-81.981678112074263,29.056798281185678],[-81.981607402115969,29.057082276584019],[-81.981587362386634,29.057295432213802],[-81.981583824569185,29.057418198254773],[-81.981544738421931,29.05752894295761],[-81.981450269854136,29.057632955249019],[-81.981369551067402,29.057661642205062],[-81.981227950506963,29.057713725299116],[-81.98119769907612,29.057879441937477],[-81.981371893843956,29.058062313119585],[-81.981647039349113,29.058157358131133],[-81.981822418515293,29.058178678004445],[-81.982007029085452,29.05820111790403],[-81.982274714266936,29.05823365663084],[-81.982492078759336,29.058342223153602],[-81.982644636662656,29.058416206139746],[-81.982756188342563,29.058466723688102],[-81.982960437810178,29.05854698818014],[-81.983167202615661,29.058572119651615],[-81.983364698476933,29.058565325519606],[-81.983613732447878,29.058496509501381],[-81.98375120960435,29.05846702149373],[-81.983919519134034,29.058371982898564],[-81.984102560410193,29.058247934552274],[-81.984248284512617,29.05817324926937],[-81.984433288991355,29.058141836934329],[-81.984640484762679,29.058143918725701],[-81.98478954796515,29.058154336223236],[-81.984875178044035,29.058357235241854],[-81.984760876963364,29.058466538295924],[-81.985238626609842,29.058595965376579],[-81.985645560127523,29.058682376858457],[-81.986053361823167,29.05877760332713],[-81.986164297414462,29.05878497678609],[-81.986147949855663,29.058874563931642],[-81.986141511615514,29.059033934745536],[-81.98623955801807,29.059199841908168],[-81.98633131937568,29.05935882600582],[-81.986418995091114,29.059498833697042],[-81.986496774159804,29.059693076040027],[-81.986551614472276,29.059847573061646],[-81.98661635077724,29.059947834438912],[-81.986749431973337,29.060084334418569],[-81.98664683717341,29.060111691355356],[-81.986545811842277,29.06021028969295],[-81.986519420754277,29.06035491560095],[-81.986497427452349,29.060475436580887],[-81.986506860168262,29.060630575238207],[-81.986500110527416,29.060833023818851],[-81.98653766879616,29.06104085657741],[-81.986594557108489,29.061349592386293],[-81.986570364233373,29.061482165866785],[-81.986548370758626,29.061602686886626],[-81.98652087911168,29.061753337714855],[-81.986491187915931,29.061916041003695],[-81.986450499297163,29.062139002994257],[-81.986427880740877,29.062345683000125],[-81.986633418906166,29.062377590696524],[-81.986619261558687,29.062455172211251],[-81.986573700539196,29.06262210690576],[-81.986564668429807,29.062715246391875],[-81.986556580320638,29.062798655336923],[-81.986586281106227,29.062925456872488],[-81.986641435032439,29.06303687266745],[-81.986803751749122,29.063222905121314],[-81.986928983873668,29.06328123875106],[-81.987104498015583,29.063394958738911],[-81.987257232871741,29.063592144193553],[-81.987355287237833,29.063758048085845],[-81.987546047587031,29.063953694196979],[-81.987607489776792,29.064072031711689],[-81.987724713639366,29.064215625605023],[-81.987757092015769,29.064410506796975],[-81.987787032385,29.064577373845641],[-81.987775486449763,29.064640646494791],[-81.987834418580334,29.064814115046854],[-81.987957929327081,29.06496463171657],[-81.988074367740154,29.065071171635285],[-81.988175724256507,29.065218995829465],[-81.98825303901549,29.065333100671133],[-81.988338838042836,29.065442077683894],[-81.988425424269138,29.065588107462414],[-81.988429363503982,29.06577337250236],[-81.988383804962538,29.065940305226555],[-81.988348141771581,29.066053003915183],[-81.988239726398703,29.066150705573943],[-81.988136808748777,29.066218276347918],[-81.988032790786221,29.066291871938464],[-81.987897033120632,29.066373932292429],[-81.987811084538635,29.066431244615671],[-81.987662753804486,29.066499458833487],[-81.987603047566537,29.066578437948898],[-81.987568483580134,29.066685110668903],[-81.987553088536515,29.066769473619051],[-81.987567234758743,29.066857425216899],[-81.987596934299248,29.066911850139377],[-81.987614380240714,29.066981724354783],[-81.987634024608582,29.067039546961752],[-81.987322921275776,29.06704567088817],[-81.987333099623314,29.067162688984531],[-81.987442629930712,29.067348462899957],[-81.987514759787857,29.06744961944915],[-81.987562220499768,29.067603212896845],[-81.987567570021866,29.067739372701304],[-81.987639862173111,29.067963738425707],[-81.98769329781129,29.068167335270051],[-81.987690162137739,29.068308622827519],[-81.987804881004934,29.068507344375224],[-81.987839459295216,29.068690170529951],[-81.987795473339574,29.068931207088621],[-81.987772068179865,29.069100829375486],[-81.987761329492741,29.069154944190064],[-81.987689020227336,29.069519341562895],[-81.987721370513484,29.069794508544089],[-81.987770222515024,29.069938294050914],[-81.987899863971023,29.069972521932492],[-81.987886620055249,29.070045096580373],[-81.987875461043515,29.070106243933484],[-81.98779835233789,29.070164044652174],[-81.987655436758516,29.070260887604654],[-81.987430788310775,29.070401899412545],[-81.987275910062877,29.070443191496402],[-81.987033004975686,29.070401659918023],[-81.986711587986591,29.070386653005908],[-81.986484939593481,29.070377149977848],[-81.986257069572261,29.070535799821204],[-81.986149883532534,29.070679058637321],[-81.985957436715822,29.070926163035189],[-81.985778331506879,29.071180898151482],[-81.985729108053661,29.071289123557406],[-81.985728958518933,29.071451396557471]],[[-81.986834083971829,29.070511507789966],[-81.986868626793807,29.070581275209005],[-81.986991484091476,29.070646344057948],[-81.987061648893587,29.070728152230316],[-81.987089254263552,29.070797076544057],[-81.987032340442838,29.07112187181518],[-81.986920213402655,29.071218177676279],[-81.986787598085058,29.071320733854101],[-81.986731498226916,29.071338555686982],[-81.986607827672259,29.071354328393035],[-81.986488556395159,29.071345996915937],[-81.986372272189058,29.071362666644802],[-81.986263373311161,29.071380233504737],[-81.986139701611535,29.071396005785349],[-81.986020430324544,29.071387673911911],[-81.985895972380916,29.071366393098835],[-81.985898012162735,29.071231132189773],[-81.985996066485328,29.071107538221998],[-81.986095219944829,29.07097791659147],[-81.986140160054831,29.070897145382506],[-81.986215742808895,29.070813935511314],[-81.98625958346112,29.070739189164907],[-81.986289431191992,29.070659405451224],[-81.98634566669611,29.07061030912174],[-81.986434867700495,29.070574861228984],[-81.986542076118511,29.070518459600226],[-81.986681313483629,29.070467876230868],[-81.986802250477581,29.070478711728974],[-81.986834083971829,29.070511507789966]]]},"properties":{"GNIS_NAME":"Smith Lake"}},{"type":"Feature","geometry":{"type":"Polygon","coordinates":[[[-81.984419281209128,29.053548678107077],[-81.984338374391655,29.053504448234044],[-81.984219453017644,29.053463239954603],[-81.984026643381071,29.05349331078423],[-81.983928678697467,29.053542553474308],[-81.983753414023994,29.053681770447344],[-81.983608366101194,29.053989000837003],[-81.98361772354265,29.054143014444101],[-81.983609436617428,29.054291060930225],[-81.983687807795135,29.054503147653783],[-81.98378138734715,29.054606247668094],[-81.983935792490115,29.054632658693855],[-81.984094878087291,29.05455644831191],[-81.984292174148209,29.054450484319958],[-81.984462467528402,29.054364169323719],[-81.984525145843961,29.054302994062965],[-81.984563259111354,29.054196791092348],[-81.984610924624235,29.054038243625786],[-81.984624861856148,29.053833555685138],[-81.984573881599687,29.053727989169619],[-81.984524751860889,29.053637936507268],[-81.984419281209128,29.053548678107077]]]},"properties":{"GNIS_NAME":"Smith Lake"}}]}